{"type":"FeatureCollection","features":[{"type":"Feature","properties":{},"geometry":{"type":"MultiLineString","coordinates":[[[123.899384,10.292052],[123.899565,10.291995],[123.901113,10.292369],[123.901046,10.29278],[123.901294,10.293881],[123.902163,10.296917],[123.902087,10.297721],[123.901561,10.300114],[123.901327,10.300689],[123.901019,10.301128],[123.900858,10.301518],[123.900767,10.301917]],[[123.900359,10.302694],[123.900767,10.301914]],[[123.90036,10.30269],[123.900139,10.303356],[123.900082,10.304123],[123.89993,10.304655],[123.899892,10.305155]],[[123.899892,10.305155],[123.89989,10.305408],[123.899739,10.306656],[123.90012,10.306632],[123.90056,10.306562],[123.900817,10.306379],[123.901142,10.306047],[123.901404,10.30572],[123.902078,10.306188],[123.90244,10.306615],[123.902876,10.307508],[123.903142,10.308066],[123.903524,10.309451],[123.903977,10.310679],[123.903901,10.310928],[123.903731,10.31124],[123.90275,10.313182]],[[123.90275,10.313182],[123.90214,10.314326],[123.901882,10.314815],[123.901606,10.315294],[123.902031,10.316385],[123.902566,10.317643],[123.903568,10.317207],[123.904026,10.31677],[123.904212,10.316589],[123.90456,10.31642],[123.905137,10.316289],[123.905624,10.316167],[123.90581,10.316134],[123.906006,10.316598],[123.906306,10.31696],[123.906636,10.317136],[123.907022,10.3173],[123.907218,10.317427],[123.907399,10.317605],[123.907867,10.318202],[123.907996,10.318371],[123.907848,10.318545],[123.907295,10.318953],[123.906484,10.319573],[123.905795,10.320058],[123.90549,10.320209],[123.905294,10.320223],[123.904955,10.32018],[123.90476,10.320162],[123.904497,10.32018],[123.903906,10.320439],[123.904782,10.32182],[123.904811,10.321947],[123.906096,10.323897],[123.906268,10.324157],[123.906512,10.324387],[123.907322,10.325593],[123.907929,10.326296],[123.908244,10.327005],[123.908624,10.32788],[123.908974,10.328667],[123.90926,10.329375],[123.909521,10.329966],[123.909884,10.330858],[123.91011,10.33157],[123.910243,10.33203],[123.910411,10.332725],[123.910516,10.333274],[123.910642,10.333984],[123.910777,10.334607],[123.910968,10.335659],[123.911187,10.336902],[123.911367,10.33791],[123.911537,10.33895],[123.911685,10.339945],[123.911802,10.340586],[123.911917,10.341238],[123.912026,10.341867],[123.912275,10.34333],[123.912469,10.34445],[123.912742,10.346046],[123.913017,10.347673],[123.913305,10.349183],[123.913543,10.350485],[123.913895,10.352035],[123.914312,10.353588],[123.914679,10.354821],[123.914908,10.355323],[123.915071,10.355733],[123.9151,10.35623],[123.915103,10.357579],[123.915141,10.357729],[123.915294,10.357959],[123.915645,10.35848],[123.915707,10.358743],[123.915678,10.359086],[123.915467,10.360208],[123.915301,10.360968],[123.915353,10.361494],[123.915378,10.361904],[123.915244,10.362495],[123.914966,10.363574],[123.914741,10.364388],[123.914526,10.364676],[123.914125,10.365024],[123.913963,10.365287],[123.913915,10.365518],[123.913905,10.367029],[123.913889,10.367297],[123.914018,10.367653],[123.914237,10.367813],[123.916357,10.369135],[123.916667,10.369284],[123.916906,10.369354],[123.917994,10.369556],[123.918654,10.369756],[123.918988,10.369944]],[[123.918988,10.369944],[123.919285,10.370157],[123.919648,10.3705],[123.920001,10.370819],[123.920144,10.370875],[123.920306,10.370842],[123.920717,10.37049],[123.92085,10.370424],[123.921079,10.370453],[123.921309,10.370606],[123.921815,10.371047],[123.922125,10.371169],[123.922513,10.371163],[123.9232,10.371327],[123.923572,10.371449],[123.924007,10.3716],[123.924078,10.371623],[123.924155,10.371571],[123.924236,10.371412],[123.924326,10.371262],[123.924412,10.37114]]]}}]}