{"type":"FeatureCollection","features":[{"type":"Feature","properties":{},"geometry":{"type":"MultiLineString","coordinates":[[[123.909841,10.340342],[123.909677,10.340497],[123.909553,10.340619],[123.90942,10.340749],[123.909332,10.340828],[123.909203,10.340965],[123.909077,10.341094],[123.908996,10.341172],[123.908949,10.341207],[123.908829,10.341215],[123.908641,10.341207],[123.908433,10.3412],[123.908253,10.341199],[123.908078,10.341201],[123.907913,10.341199],[123.907861,10.341193],[123.907838,10.341168],[123.907815,10.341129],[123.907738,10.341073],[123.907651,10.341045],[123.907563,10.341033],[123.907403,10.341031],[123.90717,10.341022],[123.907023,10.341017],[123.906903,10.341016],[123.90672,10.34101],[123.906638,10.341005],[123.90658,10.340976],[123.906525,10.340945],[123.906466,10.340847],[123.906428,10.340761],[123.906387,10.34065],[123.906352,10.340569],[123.906312,10.340473],[123.906249,10.34033],[123.906207,10.340239],[123.906151,10.340119],[123.906105,10.340003],[123.906038,10.339855],[123.905936,10.339637],[123.905863,10.339471],[123.905812,10.339356],[123.905762,10.339236],[123.905676,10.339067],[123.90555,10.338897],[123.90547,10.338801],[123.905379,10.338688],[123.905279,10.338555],[123.905186,10.338441],[123.90509,10.33832],[123.90497,10.338177],[123.904887,10.338079],[123.904812,10.337991],[123.904716,10.33788],[123.904671,10.337812],[123.904773,10.337721],[123.904839,10.337676],[123.904929,10.33761],[123.905071,10.337506],[123.90519,10.337434],[123.905331,10.33733],[123.905442,10.337263],[123.90557,10.337164],[123.905642,10.3371],[123.905737,10.337037],[123.905865,10.336959],[123.90596,10.336897],[123.906019,10.336852],[123.906097,10.336791],[123.906168,10.336734],[123.906238,10.336689],[123.906353,10.336613],[123.906444,10.336544],[123.906536,10.336478],[123.906621,10.336416],[123.906707,10.336342],[123.906785,10.336275],[123.906844,10.336219],[123.906896,10.336156],[123.906967,10.336086],[123.907034,10.336014],[123.907114,10.335934],[123.907172,10.335879],[123.907254,10.335821],[123.907306,10.33581],[123.90736,10.335828],[123.907432,10.335896],[123.907555,10.336025],[123.907649,10.336122],[123.907766,10.336223],[123.90783,10.336289],[123.907854,10.336315],[123.907877,10.336329],[123.907903,10.336325],[123.907949,10.33629],[123.907996,10.336257],[123.908037,10.336228],[123.908096,10.336187],[123.90811,10.336171],[123.908113,10.336149],[123.908076,10.33609],[123.908032,10.336018],[123.907998,10.335966],[123.907935,10.335859],[123.907887,10.335771],[123.907838,10.335697],[123.907781,10.335594],[123.907723,10.335497],[123.907649,10.335375],[123.9076,10.33531],[123.907537,10.335177],[123.907502,10.335112],[123.907477,10.335038],[123.907454,10.334954],[123.907432,10.334871],[123.90739,10.334728],[123.907345,10.334573],[123.907313,10.334471],[123.907282,10.334353],[123.907243,10.334221],[123.907213,10.334106],[123.907188,10.334011],[123.907155,10.333894],[123.907114,10.333745],[123.907083,10.333634],[123.907037,10.333473],[123.907002,10.33334],[123.90694,10.333109],[123.906878,10.3329],[123.906839,10.332763],[123.906818,10.332657],[123.906763,10.332564],[123.906716,10.332483],[123.906636,10.332348],[123.906569,10.332237],[123.906517,10.332162],[123.906488,10.332098],[123.90648,10.332074],[123.906486,10.332036],[123.906528,10.33201],[123.906606,10.331971],[123.906769,10.331873]],[[123.906806,10.331854],[123.906926,10.331779],[123.907043,10.331706],[123.907146,10.331643],[123.907288,10.331557],[123.907418,10.331475],[123.907565,10.331382],[123.907701,10.331296],[123.907806,10.33123],[123.907954,10.331139],[123.908074,10.33107],[123.908178,10.331003],[123.908267,10.330952],[123.908286,10.330938],[123.908291,10.330932],[123.908291,10.33092],[123.908281,10.330899],[123.908254,10.330852],[123.908206,10.330778],[123.908173,10.330724],[123.908137,10.330661],[123.908091,10.330587],[123.908051,10.330523],[123.908019,10.330468],[123.907959,10.330361],[123.90791,10.330286],[123.90787,10.33022],[123.907826,10.330146],[123.907761,10.330039],[123.907712,10.329958],[123.907665,10.329886],[123.907613,10.329792],[123.90757,10.32972],[123.907534,10.329661],[123.907483,10.329576],[123.90744,10.329509],[123.907393,10.329433],[123.907349,10.32936],[123.907304,10.32928],[123.907247,10.329186],[123.90719,10.329093],[123.907136,10.329],[123.907094,10.328934],[123.90705,10.328856],[123.907002,10.328779],[123.906959,10.328704],[123.906915,10.328631],[123.90687,10.32856],[123.906827,10.328489],[123.906802,10.328438],[123.906794,10.328424],[123.906784,10.328416],[123.906767,10.328419],[123.906731,10.328441],[123.906664,10.328487],[123.906579,10.32854],[123.906495,10.32859],[123.90642,10.328633],[123.906339,10.328684],[123.906249,10.328738],[123.906157,10.328793],[123.906044,10.328858],[123.905976,10.328898],[123.905896,10.328947],[123.905802,10.329002],[123.905713,10.329059],[123.90562,10.329112],[123.905528,10.329167],[123.905475,10.329203],[123.905424,10.329231],[123.905365,10.329254],[123.905342,10.329255],[123.905325,10.329254],[123.9053,10.329243],[123.905282,10.329223]],[[123.905282,10.329223],[123.905218,10.32912],[123.905124,10.328963],[123.90502,10.328783],[123.904871,10.32853],[123.904759,10.328352],[123.904672,10.32821],[123.90461,10.328086],[123.904511,10.327929],[123.90436,10.328018],[123.904118,10.328158],[123.903852,10.328309],[123.903631,10.328436],[123.903332,10.328592],[123.903007,10.328759],[123.902774,10.328876],[123.902497,10.329011],[123.902247,10.329141],[123.902006,10.32926],[123.901742,10.329396],[123.901467,10.32953],[123.901248,10.329641],[123.901014,10.329765],[123.9008,10.329865],[123.900545,10.329996],[123.900228,10.330152],[123.900077,10.330229],[123.899853,10.330337],[123.899575,10.330472],[123.899278,10.330608],[123.89908,10.3307],[123.898778,10.330837],[123.898611,10.330903],[123.898396,10.33101],[123.898262,10.331077],[123.898138,10.331145],[123.898082,10.331162],[123.898056,10.331118],[123.898029,10.331041],[123.897967,10.330886],[123.897913,10.330726],[123.897872,10.330626],[123.897833,10.330522],[123.897804,10.3304],[123.897759,10.330262],[123.897704,10.330068],[123.897662,10.329928],[123.897617,10.329781],[123.897556,10.329561],[123.897502,10.329403],[123.897448,10.329215],[123.897417,10.329095],[123.897394,10.328988],[123.897381,10.328898],[123.897366,10.328728],[123.897364,10.328663],[123.897374,10.328549],[123.897406,10.328435],[123.897441,10.328321],[123.897485,10.328177],[123.897519,10.328073],[123.897578,10.327894],[123.897608,10.3278],[123.897657,10.32764],[123.897693,10.327545],[123.897732,10.327429],[123.897772,10.327297],[123.897818,10.327154],[123.897858,10.327032],[123.897886,10.326931],[123.897918,10.326827],[123.897925,10.32673],[123.89794,10.326613],[123.897959,10.326508],[123.89797,10.326384],[123.897994,10.326225],[123.898009,10.326093],[123.898024,10.325921],[123.898044,10.325748],[123.898067,10.325549],[123.898087,10.325378],[123.898106,10.325238],[123.89815,10.325026],[123.898186,10.324801],[123.898222,10.324619],[123.898264,10.324452],[123.898312,10.324245],[123.898354,10.324048],[123.898403,10.32384],[123.898442,10.323658],[123.898503,10.323391],[123.898559,10.323144],[123.898601,10.322953],[123.898661,10.322688],[123.898691,10.322555],[123.898726,10.322396],[123.898755,10.322267],[123.898796,10.322084],[123.898821,10.321968],[123.898868,10.321783],[123.898886,10.32169],[123.89893,10.321515],[123.898955,10.321381],[123.898997,10.321184],[123.899046,10.320964],[123.899093,10.320763],[123.899134,10.320612],[123.89915,10.320515],[123.899196,10.320334],[123.899235,10.320171],[123.899258,10.32007],[123.899276,10.319965]],[[123.899276,10.319965],[123.899309,10.31987],[123.899352,10.319765],[123.89939,10.319675],[123.89944,10.319568],[123.899482,10.319477],[123.89954,10.319366],[123.89961,10.319222],[123.899662,10.319114],[123.899713,10.318998],[123.899764,10.318895],[123.899824,10.318775],[123.899893,10.318633],[123.899956,10.318507],[123.900025,10.318361],[123.900088,10.318237],[123.90018,10.318053],[123.900263,10.317896],[123.900335,10.317754],[123.900409,10.317612],[123.900546,10.317359]],[[123.900546,10.317359],[123.900722,10.317016],[123.90084,10.316794],[123.900959,10.316572],[123.901107,10.316294],[123.901223,10.31605],[123.901404,10.31569],[123.901539,10.315402],[123.901614,10.315246],[123.901654,10.315163],[123.90175,10.314976],[123.901835,10.31482],[123.901944,10.314654],[123.902058,10.31447],[123.902153,10.314286],[123.90224,10.314113],[123.902338,10.313919],[123.902443,10.313716],[123.90253,10.313544],[123.902625,10.31336],[123.902729,10.313167],[123.902832,10.312963],[123.902946,10.312735],[123.903055,10.312517],[123.903155,10.312311],[123.903269,10.312087],[123.903368,10.311885],[123.903478,10.311667],[123.903574,10.31148],[123.903672,10.311293],[123.903782,10.311083],[123.903795,10.311051],[123.903803,10.311023],[123.903804,10.310988],[123.903794,10.310963],[123.903779,10.310938],[123.903759,10.31091],[123.903733,10.310885],[123.903709,10.310869],[123.903686,10.310854],[123.903667,10.310849],[123.903631,10.310866],[123.903533,10.310909],[123.903437,10.310947],[123.903308,10.310993],[123.903165,10.311046],[123.903057,10.311084],[123.902911,10.311129],[123.902804,10.311165],[123.902656,10.311211],[123.902552,10.311245],[123.902299,10.311326],[123.902109,10.31138],[123.901924,10.311427],[123.901811,10.311447],[123.901672,10.311459],[123.901484,10.311477],[123.901282,10.311498],[123.90104,10.31152],[123.900839,10.311533],[123.900624,10.311541],[123.900454,10.311543],[123.900244,10.311545],[123.900031,10.311548],[123.899904,10.311548],[123.899753,10.311534],[123.899593,10.311511],[123.899456,10.311488],[123.899264,10.311455],[123.899126,10.311429],[123.898954,10.31139],[123.898797,10.311358],[123.898652,10.311332],[123.898495,10.311296],[123.898347,10.311265],[123.898199,10.311221],[123.898059,10.311179],[123.897904,10.311122],[123.897753,10.311073],[123.89752,10.310993],[123.897281,10.310909],[123.897099,10.310846],[123.896951,10.310793],[123.896773,10.310735],[123.896619,10.310684],[123.896441,10.310625],[123.896278,10.310565],[123.896121,10.310513],[123.895902,10.310439],[123.895713,10.310377],[123.895542,10.310312],[123.895424,10.310274],[123.8953,10.310236],[123.895103,10.310163],[123.894913,10.310099],[123.894782,10.310052],[123.894642,10.310009],[123.894495,10.309958],[123.894429,10.309935],[123.894391,10.309923],[123.894365,10.30991],[123.894353,10.309885],[123.894355,10.30986],[123.89439,10.309796],[123.894448,10.309719],[123.894555,10.309579],[123.894652,10.309456],[123.894742,10.309339],[123.894833,10.309226],[123.894938,10.309091],[123.895036,10.308958],[123.895129,10.308833],[123.895209,10.308724],[123.895294,10.308609],[123.895405,10.308466],[123.895508,10.308329],[123.895617,10.308177],[123.895767,10.307985],[123.895926,10.307775],[123.896118,10.307524],[123.896296,10.307286],[123.896499,10.30701],[123.896666,10.306794],[123.896864,10.30654],[123.897079,10.306255],[123.897311,10.305955],[123.897491,10.305721],[123.897657,10.305485],[123.897843,10.305247],[123.89806,10.304955],[123.898148,10.30483],[123.898173,10.304788],[123.898167,10.304699],[123.898165,10.304598],[123.898169,10.30439],[123.898177,10.304161],[123.89819,10.303922],[123.898202,10.303588],[123.898211,10.30319],[123.898214,10.302978],[123.898224,10.302748],[123.898245,10.30247],[123.898239,10.302219],[123.898236,10.302043],[123.898229,10.301954],[123.898289,10.301846],[123.898355,10.301729],[123.89845,10.301567],[123.898532,10.301431],[123.898642,10.301216],[123.898742,10.30103],[123.898833,10.300861],[123.898925,10.300688],[123.899027,10.300489],[123.899133,10.300288],[123.899252,10.30009],[123.899394,10.299832],[123.899531,10.299613],[123.899681,10.299368],[123.899844,10.299072],[123.899929,10.298924],[123.899938,10.298898],[123.899934,10.298881],[123.899917,10.298869],[123.89985,10.298838],[123.899677,10.298776],[123.899518,10.298712],[123.899291,10.298626],[123.899098,10.298549],[123.8989,10.298473],[123.898712,10.298401],[123.898513,10.298299],[123.898374,10.29822],[123.898218,10.298131],[123.898055,10.298046],[123.897879,10.297949],[123.89774,10.29788],[123.897585,10.297796],[123.897463,10.297743],[123.8973,10.297691],[123.897054,10.29762],[123.896825,10.297551],[123.896611,10.29749],[123.896339,10.29741],[123.896116,10.297345],[123.895911,10.297286],[123.895763,10.297238],[123.895559,10.297182],[123.895245,10.297085],[123.894976,10.297003],[123.894773,10.296943],[123.894557,10.296877],[123.894312,10.296806],[123.894014,10.296721],[123.893805,10.296654],[123.893618,10.296606],[123.893425,10.296553],[123.893203,10.296489],[123.893061,10.29645],[123.892857,10.296393],[123.892723,10.296353],[123.892641,10.296329],[123.892621,10.296323],[123.892607,10.29631],[123.892602,10.296302],[123.892602,10.296286],[123.892632,10.296257],[123.892712,10.29617],[123.892851,10.296021],[123.892968,10.295889],[123.893096,10.295743],[123.893228,10.295585],[123.893361,10.295439],[123.893556,10.295213],[123.893742,10.294995],[123.893931,10.294782],[123.894101,10.294589],[123.894131,10.294551],[123.894146,10.294539],[123.894173,10.294533],[123.894199,10.294543],[123.894233,10.294557],[123.894259,10.294564],[123.89428,10.294559],[123.894298,10.294546],[123.894329,10.294501],[123.894547,10.294235],[123.894694,10.29406],[123.894849,10.293885],[123.895008,10.2937],[123.895167,10.293516],[123.895323,10.293339],[123.895416,10.29323],[123.89546,10.293178],[123.895469,10.293171],[123.895478,10.293166],[123.895487,10.293164],[123.895497,10.293165],[123.895526,10.293169],[123.895643,10.29319],[123.895806,10.293223],[123.895988,10.29326],[123.89614,10.293287],[123.896365,10.293332],[123.896626,10.293383],[123.896851,10.293427],[123.897054,10.29347],[123.897149,10.293492],[123.897195,10.293502],[123.897207,10.293504],[123.897215,10.293503],[123.897219,10.293501],[123.897225,10.293494],[123.897227,10.293475],[123.897235,10.293379],[123.897242,10.293311],[123.897249,10.293234],[123.89726,10.293126],[123.897268,10.293045],[123.897275,10.292964],[123.897285,10.292881],[123.897293,10.292802],[123.8973,10.292675],[123.897309,10.292588],[123.897317,10.292507],[123.897324,10.292421],[123.897332,10.292347],[123.897343,10.292281],[123.897356,10.2922],[123.897369,10.292102],[123.897395,10.291973],[123.897423,10.291846],[123.897449,10.291741],[123.897475,10.291643],[123.897496,10.291566],[123.897506,10.291525],[123.897513,10.291503],[123.897518,10.291498],[123.897527,10.291492],[123.897537,10.291489],[123.897546,10.29149],[123.89757,10.291496],[123.897643,10.291513],[123.897711,10.291529],[123.897796,10.29155],[123.897875,10.29157],[123.897952,10.291587],[123.898035,10.291607],[123.898122,10.291628],[123.898207,10.29165],[123.89829,10.291668],[123.898375,10.291687],[123.898487,10.291712],[123.898595,10.291737],[123.898726,10.291767],[123.898894,10.291806],[123.899011,10.291833],[123.899166,10.291871],[123.899298,10.291905],[123.899526,10.291966],[123.899668,10.291999],[123.899856,10.292046],[123.900024,10.292085],[123.90015,10.292117],[123.900312,10.292156],[123.900491,10.292199],[123.900662,10.292244],[123.90081,10.292279],[123.900987,10.29233],[123.901117,10.292358],[123.901253,10.292389],[123.901381,10.292423],[123.901503,10.292456],[123.901652,10.292493],[123.901805,10.292532],[123.901959,10.292569],[123.902034,10.292586],[123.902101,10.292605],[123.902173,10.292625],[123.902219,10.292636],[123.902243,10.292637],[123.902292,10.292617],[123.902437,10.292556],[123.902683,10.292457],[123.902868,10.292379],[123.902985,10.292332],[123.903009,10.292326],[123.903022,10.292329],[123.903032,10.292335],[123.90304,10.292346],[123.90305,10.292374],[123.903092,10.292472],[123.903144,10.292605],[123.90321,10.292743],[123.903278,10.292899],[123.903354,10.293073],[123.903464,10.293279],[123.903547,10.293438],[123.903626,10.293592],[123.903744,10.293836],[123.903842,10.294038],[123.903924,10.294213],[123.904062,10.294478],[123.904079,10.294513],[123.904081,10.294523],[123.90408,10.294535],[123.904072,10.294546],[123.904056,10.294556],[123.903954,10.2946],[123.903774,10.294681],[123.903583,10.294767],[123.903383,10.294871],[123.903214,10.294952],[123.903085,10.295009],[123.902952,10.295066],[123.902835,10.295114],[123.902682,10.295181],[123.902547,10.295235]],[[123.902547,10.295235],[123.902348,10.295312],[123.902112,10.295402],[123.901853,10.295501],[123.901792,10.295521],[123.901768,10.295531],[123.901762,10.295536],[123.901759,10.295541],[123.901761,10.29555],[123.901797,10.295671],[123.901849,10.295831],[123.901878,10.295938],[123.901908,10.296039],[123.901947,10.29617],[123.90199,10.296313],[123.902026,10.29644],[123.902066,10.296576],[123.902113,10.296733],[123.902146,10.296851],[123.902149,10.296894],[123.902146,10.296964],[123.902133,10.297105],[123.902121,10.297242],[123.902105,10.297417],[123.90209,10.297558],[123.902076,10.2977],[123.90205,10.2978],[123.901985,10.297893],[123.901953,10.298028],[123.901891,10.298319],[123.901853,10.298528],[123.901789,10.298809],[123.901731,10.299116],[123.901681,10.299346],[123.901626,10.299683],[123.901582,10.299971],[123.901535,10.300168],[123.901445,10.300402],[123.901342,10.300629],[123.901196,10.30087],[123.901051,10.301061],[123.900988,10.301143],[123.900939,10.301279],[123.900855,10.301518],[123.900807,10.301722],[123.900754,10.301925],[123.900649,10.302111],[123.900513,10.302357],[123.900388,10.302629],[123.900259,10.302949],[123.900169,10.30324],[123.900142,10.303328],[123.900129,10.303419],[123.900117,10.303605],[123.900102,10.303745],[123.900089,10.303919],[123.900078,10.30403],[123.900065,10.30412],[123.900053,10.304185],[123.900042,10.304207],[123.900026,10.304222],[123.899995,10.304227],[123.899931,10.304217],[123.899702,10.304182],[123.899502,10.304152],[123.899276,10.304133],[123.899012,10.304099],[123.898904,10.304088],[123.898866,10.30409],[123.898827,10.304096],[123.898801,10.304109],[123.898778,10.30413],[123.898745,10.30417],[123.898629,10.304309],[123.898476,10.304507],[123.898306,10.304708],[123.898215,10.304792],[123.89819,10.304814],[123.898153,10.304865],[123.898048,10.305014],[123.897953,10.305145],[123.897821,10.305313],[123.89763,10.305569],[123.897423,10.305857],[123.89723,10.30611],[123.897049,10.306342],[123.896827,10.306635],[123.896601,10.306928],[123.896455,10.307113],[123.8963,10.307322],[123.896139,10.307542],[123.895951,10.307788],[123.895829,10.307952],[123.895622,10.308218],[123.895467,10.308426],[123.895291,10.308657],[123.895134,10.308874],[123.894979,10.309084],[123.894844,10.309257],[123.894718,10.309414],[123.894553,10.309625],[123.894431,10.309781],[123.894416,10.309804],[123.894401,10.309826],[123.894398,10.309843],[123.894406,10.309854],[123.894422,10.30986],[123.894441,10.309866],[123.894622,10.309922],[123.89479,10.309983],[123.895028,10.310059]],[[123.895028,10.310059],[123.895394,10.310183],[123.895739,10.310301],[123.896111,10.310422],[123.896324,10.310502],[123.896571,10.310583],[123.896824,10.31067],[123.897052,10.310754],[123.89722,10.310819],[123.89746,10.310899],[123.897729,10.310998],[123.89801,10.311095],[123.898354,10.311209],[123.89862,10.311256],[123.898914,10.311306],[123.899176,10.311356],[123.899463,10.311408],[123.899738,10.311439],[123.899949,10.31147],[123.90019,10.311478],[123.900599,10.311484],[123.90097,10.311465],[123.901415,10.311415],[123.901747,10.311384],[123.901969,10.311355],[123.902158,10.311302],[123.902609,10.311162],[123.90295,10.311048],[123.90349,10.310847],[123.903671,10.310772],[123.90382,10.310702],[123.903917,10.310651],[123.903934,10.31065],[123.903954,10.310652],[123.903971,10.310663],[123.90398,10.310678],[123.903978,10.310717],[123.903946,10.310792],[123.903897,10.310906],[123.903831,10.311049],[123.903764,10.311184],[123.90366,10.311376],[123.903513,10.31167],[123.903372,10.311953],[123.903264,10.312168],[123.903146,10.312399],[123.903064,10.312575],[123.90294,10.312816],[123.902837,10.313027],[123.902725,10.313243],[123.902575,10.313528],[123.902454,10.31376],[123.902349,10.313963],[123.902229,10.314199],[123.90212,10.314407],[123.902044,10.31455],[123.901887,10.314792],[123.901801,10.314949],[123.901715,10.315121],[123.901613,10.315317],[123.901522,10.315513],[123.90141,10.31575],[123.901324,10.315913],[123.901231,10.316103],[123.901133,10.316302],[123.90097,10.31662],[123.900876,10.316793],[123.90077,10.316993],[123.900663,10.317194],[123.900554,10.317415],[123.900438,10.317625],[123.900343,10.317804],[123.900158,10.31816],[123.900005,10.318473],[123.89991,10.318674],[123.899789,10.318924],[123.899659,10.319192],[123.899579,10.319356],[123.899501,10.319522],[123.899403,10.319727],[123.899356,10.319822],[123.899328,10.31989],[123.899311,10.319934],[123.899307,10.319949]],[[123.899307,10.319949],[123.89929,10.320011],[123.899258,10.320167],[123.899226,10.320307],[123.899192,10.320441],[123.899164,10.320568],[123.899143,10.32067],[123.899106,10.320802],[123.899078,10.320943],[123.899034,10.321125],[123.898999,10.321294],[123.898955,10.321503],[123.898911,10.321674],[123.898882,10.321815],[123.898843,10.321978],[123.898813,10.322141],[123.898777,10.322288],[123.898737,10.322456],[123.898698,10.322644],[123.89867,10.322767],[123.898643,10.322881],[123.898605,10.323059],[123.898571,10.323211],[123.898538,10.323351],[123.898513,10.32348],[123.898482,10.323617],[123.898454,10.323736],[123.898425,10.323878],[123.89839,10.324034],[123.898355,10.324179],[123.898315,10.32436],[123.898275,10.324517],[123.898249,10.324642],[123.898221,10.324787],[123.898198,10.324927],[123.898176,10.32505],[123.898151,10.325172],[123.898124,10.32531],[123.898118,10.325363],[123.898105,10.325503],[123.898083,10.325679],[123.898063,10.325839],[123.898048,10.326016],[123.898024,10.326234],[123.898,10.32646],[123.897963,10.326691],[123.897935,10.326876],[123.897891,10.327027],[123.897832,10.327201],[123.897771,10.327397],[123.897716,10.327575],[123.897655,10.32776],[123.897572,10.328009],[123.897501,10.328215],[123.897432,10.328458],[123.897397,10.328573],[123.897396,10.328708],[123.897419,10.328931],[123.897456,10.329104],[123.897499,10.329272],[123.897547,10.329427],[123.897614,10.329627],[123.897657,10.329796],[123.897713,10.329989],[123.897762,10.330152],[123.897825,10.330364],[123.897889,10.330572],[123.897918,10.330609],[123.897987,10.330669],[123.898105,10.330762],[123.898207,10.330824],[123.89836,10.330888],[123.898487,10.330927],[123.898531,10.330914],[123.898619,10.330879],[123.898742,10.33082],[123.898916,10.330745],[123.899114,10.330654],[123.899336,10.33056],[123.899509,10.33048],[123.899688,10.330395],[123.899853,10.330311],[123.90014,10.330163],[123.900464,10.330011],[123.900698,10.329888],[123.900903,10.329783],[123.901273,10.329592],[123.901524,10.329468],[123.901741,10.329358],[123.901983,10.329233],[123.902232,10.32911],[123.902488,10.328985],[123.902764,10.328842],[123.902997,10.328725],[123.903315,10.32856],[123.903618,10.328401],[123.903977,10.328197],[123.904228,10.328054],[123.904535,10.327877],[123.90456,10.327867],[123.904585,10.327869],[123.904604,10.327888],[123.904623,10.327915],[123.904708,10.328059],[123.904831,10.32827],[123.905056,10.328644],[123.905217,10.328915],[123.905344,10.329112],[123.905353,10.329126],[123.905366,10.329134],[123.905379,10.329132],[123.9054,10.32912],[123.905534,10.329037],[123.905776,10.328893],[123.905969,10.328775],[123.906269,10.328583],[123.906428,10.328496],[123.906588,10.328399],[123.906795,10.328281],[123.906814,10.328269],[123.906829,10.328265],[123.90684,10.328271],[123.906854,10.328294],[123.906915,10.328393],[123.906982,10.328497],[123.907118,10.328735],[123.907235,10.328922],[123.907418,10.329227],[123.907563,10.329451],[123.907637,10.329571],[123.90774,10.329747],[123.907914,10.330029],[123.908049,10.330252],[123.908177,10.330477],[123.908271,10.330619],[123.908365,10.330771],[123.908407,10.330846],[123.908463,10.330936],[123.908472,10.330983],[123.908461,10.330998],[123.90844,10.331013],[123.908374,10.331044],[123.908234,10.331121],[123.908086,10.33122],[123.907842,10.331374],[123.907695,10.331447],[123.907467,10.331585],[123.907348,10.331666],[123.90714,10.331786],[123.907015,10.331869],[123.906857,10.331966],[123.90676,10.332025],[123.906604,10.332103],[123.906554,10.332136],[123.906549,10.332159],[123.906566,10.332188],[123.906648,10.33231],[123.90673,10.332439],[123.906812,10.332584],[123.906846,10.332641],[123.906867,10.332741],[123.906908,10.332891],[123.906941,10.333017],[123.907001,10.333222],[123.907033,10.333343]],[[123.907033,10.333343],[123.907121,10.333667],[123.907195,10.333918],[123.90725,10.334118],[123.907312,10.334344],[123.907361,10.33452],[123.907428,10.334761],[123.907463,10.334895],[123.907527,10.335099],[123.907569,10.335198],[123.907639,10.335324],[123.907732,10.33547],[123.907876,10.335715],[123.90801,10.335936],[123.90815,10.336155],[123.908132,10.336199],[123.908086,10.336233],[123.908,10.33629],[123.907836,10.336414],[123.90774,10.336475],[123.907686,10.336507],[123.907664,10.336518],[123.907644,10.336513],[123.907617,10.336494],[123.907569,10.33645],[123.907436,10.336318],[123.907351,10.336228],[123.907261,10.336137],[123.907179,10.336052],[123.907157,10.336027],[123.907136,10.336007],[123.907112,10.335996],[123.907089,10.335997],[123.907015,10.336078],[123.906887,10.336215],[123.906756,10.336335],[123.906624,10.336448],[123.906526,10.33652],[123.906325,10.336668],[123.906188,10.336758],[123.905995,10.336902],[123.905851,10.336988],[123.905686,10.337101],[123.905542,10.337215],[123.905399,10.337314],[123.905274,10.337405],[123.905078,10.337528],[123.904991,10.3376],[123.904868,10.337689],[123.904766,10.33776],[123.904714,10.337796],[123.904704,10.337805],[123.904701,10.337812],[123.904704,10.337823],[123.904717,10.337836],[123.904781,10.337912],[123.904897,10.338049],[123.905033,10.338215],[123.905154,10.338362],[123.905325,10.338575],[123.905424,10.338694],[123.905512,10.33881],[123.905657,10.339001],[123.905707,10.339067],[123.905796,10.339252],[123.905903,10.339478],[123.905978,10.339658],[123.906066,10.339852],[123.906155,10.340051],[123.906245,10.340255],[123.906314,10.34041],[123.906382,10.340565],[123.90644,10.34071],[123.906493,10.34083],[123.906549,10.340929],[123.906574,10.34095],[123.906621,10.340972],[123.906645,10.34098],[123.906774,10.340985],[123.907063,10.340991],[123.907401,10.341],[123.907554,10.341001],[123.907635,10.341006],[123.907688,10.341021],[123.907749,10.341043],[123.907812,10.341086],[123.907847,10.341132],[123.907871,10.341171],[123.907884,10.341175],[123.907905,10.341177],[123.907997,10.341179],[123.908233,10.341173],[123.908439,10.341176],[123.908681,10.341179],[123.908894,10.341189],[123.908935,10.341187],[123.908968,10.341159],[123.909073,10.341058],[123.909227,10.340899],[123.909459,10.340672],[123.909576,10.340559],[123.909757,10.340387],[123.909827,10.340317],[123.909864,10.340288],[123.909883,10.340286],[123.909897,10.340295],[123.909911,10.340322],[123.909936,10.340403],[123.909965,10.340484],[123.910019,10.34065],[123.91004,10.340709],[123.910043,10.340733],[123.910041,10.340748],[123.910036,10.340753],[123.910027,10.340752],[123.91002,10.340749],[123.910009,10.340729],[123.909999,10.340694],[123.909979,10.340628],[123.90996,10.340556],[123.90994,10.340492],[123.909925,10.340446],[123.909909,10.3404],[123.909898,10.340356],[123.909896,10.340339],[123.90989,10.340324],[123.909881,10.340317],[123.909871,10.340316],[123.909857,10.340328],[123.909841,10.340342]]]}}]}