{"type":"FeatureCollection","features":[{"type":"Feature","properties":{"osm_id":20587182,"name":"01B Sambag 1-Pier 1 & 2 westbound","from":"Pier 1 & 2","network":"LTFRB Region VII","network:wikidata":"Q6483998","public_transport:version":"2","ref":"01B","route":"bus","to":"Sambag 1","type":"route"},"geometry":{"type":"MultiLineString","coordinates":[[[123.887624,10.298461],[123.887808,10.29858],[123.887957,10.298709],[123.888135,10.298858],[123.888257,10.298975],[123.88845,10.299119],[123.888527,10.299175],[123.888606,10.299228],[123.888812,10.299363],[123.888956,10.299455],[123.888969,10.299463],[123.888993,10.299477],[123.889017,10.299491],[123.88903,10.299498],[123.889153,10.29956],[123.889233,10.299591],[123.88939,10.299652],[123.889713,10.29978],[123.889991,10.299892],[123.890582,10.3001],[123.890699,10.300122],[123.890854,10.300125],[123.890927,10.300107],[123.891243,10.300013],[123.891421,10.299956],[123.891583,10.299911],[123.892083,10.299751],[123.8928,10.299531],[123.893575,10.299294],[123.893705,10.299262],[123.893766,10.299244],[123.893853,10.299225],[123.893895,10.299215],[123.894086,10.299167],[123.894258,10.29913],[123.894379,10.299104],[123.894412,10.299095],[123.894572,10.299068],[123.894776,10.299037],[123.894996,10.298997],[123.895084,10.298983],[123.895226,10.298953],[123.89542,10.298917],[123.895501,10.298891],[123.895543,10.298855],[123.895569,10.298793],[123.895595,10.298711],[123.895658,10.298501],[123.89581,10.297982],[123.895981,10.297383],[123.896001,10.297312],[123.896488,10.295645],[123.89654,10.295463],[123.896739,10.295563],[123.897326,10.295823],[123.897929,10.296109],[123.898071,10.296182],[123.898191,10.296251],[123.89828,10.296302],[123.898425,10.296389],[123.898535,10.296452],[123.898622,10.296502],[123.89897,10.2967],[123.899045,10.296738],[123.899204,10.296823],[123.899331,10.296895],[123.899577,10.297053],[123.899607,10.29707],[123.899929,10.297273],[123.900302,10.297478],[123.900525,10.297571],[123.900639,10.297608],[123.900763,10.297639],[123.90095,10.297676],[123.901166,10.297713],[123.901498,10.297749],[123.901689,10.297764],[123.90188,10.297779],[123.901945,10.297785],[123.902058,10.297794],[123.902173,10.297801],[123.902817,10.297868],[123.903097,10.297896],[123.903246,10.29791],[123.903736,10.297917],[123.903718,10.298066],[123.903702,10.298205],[123.903684,10.298427],[123.903736,10.298529],[123.90377,10.298759],[123.903801,10.29898],[123.903894,10.299472],[123.903836,10.299868],[123.903775,10.300293],[123.903393,10.300338],[123.903038,10.30038],[123.902744,10.300397],[123.90259,10.300392],[123.902423,10.30037],[123.9021,10.300275],[123.901546,10.300125],[123.901478,10.300329],[123.901363,10.300583],[123.901309,10.300681],[123.901281,10.300731],[123.901221,10.300833],[123.901167,10.300906],[123.900985,10.30115],[123.90086,10.30151],[123.900834,10.301585],[123.900934,10.301614],[123.901051,10.301648],[123.901327,10.301722],[123.901517,10.301773],[123.901757,10.301839],[123.901773,10.301844],[123.901817,10.30186],[123.902061,10.301955],[123.902095,10.301979],[123.90214,10.302017],[123.902256,10.301824],[123.902362,10.301651],[123.902504,10.301671],[123.902658,10.301683],[123.902943,10.301698],[123.903455,10.301741],[123.903718,10.301754],[123.90382,10.301753],[123.903899,10.301757],[123.904039,10.301769],[123.9046,10.301803],[123.905447,10.301864],[123.905524,10.301865],[123.905807,10.301883],[123.906318,10.30191],[123.906486,10.301919],[123.906568,10.301923],[123.906645,10.301926],[123.907323,10.301958],[123.907908,10.301948],[123.908327,10.30193],[123.908465,10.30193],[123.908545,10.301929],[123.908976,10.301913],[123.909699,10.3019],[123.909907,10.301876],[123.910081,10.301812],[123.910189,10.301723],[123.910244,10.301664],[123.910178,10.301587],[123.910117,10.301511],[123.910081,10.301462],[123.91002,10.301377],[123.909897,10.301204],[123.909832,10.301097],[123.909636,10.300758],[123.909498,10.300515],[123.909357,10.300266],[123.909273,10.300113],[123.909261,10.30009],[123.909085,10.299769],[123.909045,10.299696],[123.908716,10.299091],[123.908618,10.298919],[123.908424,10.298577],[123.908366,10.298474],[123.90846,10.298461],[123.908565,10.298434],[123.908618,10.29842],[123.908757,10.298378],[123.908876,10.298336],[123.908973,10.298298],[123.909066,10.298262],[123.909544,10.298034],[123.909597,10.298124],[123.9098,10.298488]],[[123.9098,10.298488],[123.90988,10.298633],[123.909954,10.298762],[123.910013,10.29888],[123.910097,10.299059],[123.9102,10.299272],[123.910454,10.299765],[123.910695,10.300267],[123.910895,10.300695],[123.91094,10.300792],[123.910731,10.301059],[123.910515,10.301326],[123.910282,10.301609],[123.910244,10.301664],[123.910189,10.301723],[123.910081,10.301812],[123.909907,10.301876],[123.909699,10.3019],[123.908976,10.301913],[123.908545,10.301929],[123.908465,10.30193],[123.908327,10.30193],[123.907908,10.301948],[123.907323,10.301958],[123.906645,10.301926],[123.906568,10.301923],[123.906486,10.301919],[123.906318,10.30191],[123.905807,10.301883],[123.905524,10.301865],[123.905447,10.301864],[123.9046,10.301803],[123.904039,10.301769],[123.903899,10.301757],[123.90382,10.301753],[123.903718,10.301754],[123.903455,10.301741],[123.902943,10.301698],[123.902658,10.301683],[123.902504,10.301671],[123.902362,10.301651],[123.90239,10.301605],[123.902476,10.30146],[123.902578,10.301299],[123.90267,10.301152],[123.902814,10.300889],[123.902937,10.300648],[123.902977,10.300548],[123.903038,10.30038],[123.903144,10.300025],[123.903219,10.299773],[123.903247,10.299457],[123.903265,10.299255],[123.903373,10.299045],[123.903426,10.298942],[123.90285,10.298956],[123.902565,10.298963],[123.902075,10.298975],[123.901852,10.29898],[123.901784,10.298973],[123.901755,10.299095],[123.901723,10.299209],[123.9016,10.299203],[123.901433,10.29919],[123.901116,10.299174],[123.900865,10.299132],[123.900351,10.298989],[123.900007,10.298896],[123.899949,10.29888],[123.899854,10.298843],[123.899584,10.298739],[123.89917,10.298578],[123.898736,10.29841],[123.898525,10.298305],[123.898367,10.298214],[123.898291,10.29817],[123.898247,10.298147],[123.897619,10.297813],[123.89752,10.297766],[123.89746,10.297745],[123.897414,10.297728],[123.896692,10.297511],[123.896117,10.297347],[123.896001,10.297312],[123.895981,10.297383],[123.89581,10.297982],[123.895658,10.298501],[123.895595,10.298711],[123.895569,10.298793],[123.895543,10.298855],[123.895501,10.298891],[123.89542,10.298917],[123.895226,10.298953],[123.895084,10.298983],[123.894996,10.298997],[123.894776,10.299037],[123.894572,10.299068],[123.894412,10.299095],[123.894379,10.299104],[123.894258,10.29913],[123.894086,10.299167],[123.893895,10.299215],[123.893853,10.299225],[123.893766,10.299244],[123.893705,10.299262],[123.893575,10.299294],[123.8928,10.299531],[123.892083,10.299751],[123.891583,10.299911],[123.891421,10.299956],[123.891243,10.300013],[123.890927,10.300107],[123.890854,10.300125],[123.890699,10.300122],[123.890582,10.3001],[123.889991,10.299892],[123.889713,10.29978],[123.88939,10.299652],[123.889233,10.299591],[123.889153,10.29956],[123.88903,10.299498],[123.889017,10.299491],[123.888993,10.299477],[123.888969,10.299463],[123.888956,10.299455],[123.888812,10.299363],[123.888606,10.299228],[123.888527,10.299175],[123.88845,10.299119],[123.888257,10.298975],[123.888135,10.298858],[123.887957,10.298709],[123.887808,10.29858],[123.887624,10.298461]]]}}]}