{"type":"FeatureCollection","features":[{"type":"Feature","properties":{},"geometry":{"type":"MultiLineString","coordinates":[[[123.917331,10.310945],[123.917577,10.310659],[123.917795,10.310396],[123.918049,10.310088],[123.918292,10.309795],[123.918457,10.309592],[123.918556,10.30947],[123.918772,10.3092],[123.918952,10.308992],[123.919132,10.308786],[123.919319,10.308939],[123.919564,10.309136],[123.919944,10.30945],[123.920277,10.309714],[123.920565,10.309953],[123.920769,10.310115],[123.921004,10.310319],[123.921258,10.310511],[123.921568,10.310748],[123.921856,10.311001],[123.922133,10.311224],[123.922434,10.311482],[123.922507,10.311539],[123.922617,10.311409],[123.922648,10.311364],[123.92263,10.311256],[123.922583,10.311187],[123.922461,10.311128],[123.922439,10.31111],[123.922473,10.311021],[123.92257,10.311068],[123.922669,10.311143],[123.922743,10.311254],[123.922743,10.311393],[123.922702,10.311486],[123.922612,10.311588],[123.922497,10.311679],[123.922279,10.311511],[123.922097,10.311338],[123.921899,10.311186],[123.921736,10.311043],[123.921563,10.310909],[123.921409,10.311101],[123.9213,10.311241],[123.921135,10.311439],[123.920976,10.311624],[123.920841,10.311804],[123.920743,10.311928],[123.920595,10.312104],[123.920458,10.312283],[123.920296,10.312464],[123.920137,10.312643],[123.920003,10.312786],[123.919843,10.312892],[123.919674,10.312962],[123.919473,10.313002],[123.919177,10.313066],[123.918948,10.31311],[123.918705,10.313166],[123.91845,10.313209],[123.918234,10.313268],[123.918094,10.313338],[123.918027,10.313405],[123.917938,10.313485],[123.917859,10.31358],[123.9178,10.313634],[123.917693,10.313551],[123.917526,10.313426],[123.917384,10.313325],[123.917238,10.313206],[123.917097,10.313092],[123.916951,10.312979],[123.916684,10.312776],[123.916466,10.312573],[123.916247,10.312425],[123.91611,10.312576],[123.915894,10.312824],[123.915782,10.312951],[123.915667,10.313074],[123.915478,10.313298],[123.915357,10.313433],[123.915193,10.313617],[123.915029,10.313783],[123.914912,10.313992],[123.914807,10.314165],[123.914721,10.314321],[123.914616,10.314506],[123.914434,10.314789],[123.914338,10.314952],[123.914244,10.315098],[123.914096,10.315339],[123.913978,10.315518],[123.913867,10.315672],[123.913776,10.31582],[123.913675,10.315982],[123.913501,10.316263],[123.913392,10.316451],[123.913224,10.316724],[123.913094,10.316938],[123.912945,10.317186],[123.912779,10.317466],[123.91262,10.31772],[123.912445,10.318011],[123.912269,10.318285],[123.912118,10.318515],[123.91202,10.318683],[123.911846,10.318973],[123.911683,10.319247],[123.911549,10.319466],[123.911377,10.319744],[123.911222,10.319975],[123.911099,10.320183],[123.910951,10.320441],[123.910816,10.320668],[123.910716,10.32083],[123.910569,10.321062],[123.910451,10.321276],[123.91032,10.321479],[123.9102,10.321665],[123.910093,10.321861],[123.909949,10.322082],[123.909772,10.32237],[123.909594,10.322661],[123.909439,10.322911],[123.909306,10.323131],[123.909168,10.323359],[123.909055,10.323544],[123.90897,10.323696],[123.908834,10.323904],[123.908698,10.324133],[123.908533,10.324406],[123.908395,10.324614],[123.908247,10.324859],[123.908076,10.325142],[123.9079,10.325428],[123.907774,10.325614],[123.907659,10.325804],[123.907509,10.326026],[123.90732,10.326135],[123.907101,10.326284],[123.906845,10.326469],[123.906603,10.326652],[123.906396,10.326818],[123.906158,10.326969],[123.905921,10.327107],[123.905692,10.327231],[123.905462,10.327364],[123.905244,10.327495],[123.904934,10.327678],[123.90457,10.327884],[123.904309,10.328023],[123.904074,10.328164],[123.903768,10.328338],[123.903529,10.328463]],[[123.903514,10.328473],[123.903195,10.328647],[123.902953,10.32876],[123.902706,10.32888],[123.902343,10.329077],[123.902115,10.329192],[123.901862,10.329308],[123.901605,10.329449],[123.901396,10.329549],[123.901185,10.329652],[123.900956,10.329777],[123.900657,10.329925],[123.900421,10.330047],[123.900169,10.330157],[123.899912,10.330295],[123.899672,10.330409],[123.899404,10.33054],[123.899153,10.33065],[123.898891,10.330779],[123.898705,10.330859],[123.898504,10.330948],[123.898399,10.330903],[123.898235,10.330836],[123.898084,10.330747],[123.897942,10.330637],[123.897859,10.330544],[123.897822,10.330423],[123.897754,10.330199],[123.897699,10.330017],[123.897642,10.329809],[123.8976,10.329665],[123.897539,10.329454],[123.897489,10.329292],[123.89743,10.329114],[123.897393,10.328947],[123.897368,10.328719],[123.897374,10.328591],[123.897407,10.328453],[123.897456,10.328279],[123.897532,10.328059],[123.897588,10.327881],[123.897652,10.3277],[123.897725,10.327471],[123.897779,10.327306],[123.897839,10.327136],[123.897904,10.326913],[123.897943,10.326721],[123.897976,10.326468],[123.898001,10.326245],[123.898029,10.326012],[123.898058,10.325778],[123.898089,10.325471],[123.898112,10.325274],[123.89815,10.325076],[123.898206,10.3248],[123.898229,10.324647],[123.898277,10.324441],[123.89833,10.32421],[123.898386,10.323941],[123.898451,10.323665],[123.898507,10.323422],[123.898564,10.323166],[123.898623,10.322904],[123.898684,10.322593],[123.898756,10.322306],[123.89882,10.321998],[123.898887,10.321727],[123.898942,10.321454],[123.899014,10.321157],[123.899066,10.320939],[123.899117,10.320676],[123.89918,10.320419],[123.899237,10.320178],[123.899301,10.319919],[123.899346,10.319795],[123.899439,10.319594],[123.899556,10.319367],[123.899635,10.319188],[123.899717,10.319037],[123.899802,10.318867],[123.899907,10.318649],[123.899951,10.318561],[123.900112,10.318632],[123.900264,10.318707],[123.900512,10.318826],[123.900732,10.318933],[123.901094,10.3191],[123.901295,10.319189],[123.901559,10.319314],[123.901749,10.31942],[123.901949,10.319518],[123.902211,10.319653],[123.902521,10.319812],[123.902782,10.319944],[123.903041,10.320085],[123.903424,10.320282],[123.903659,10.320407],[123.903784,10.320398],[123.903989,10.32027],[123.904211,10.320166],[123.904369,10.320095],[123.904575,10.320056],[123.90482,10.320026],[123.905022,10.320049],[123.905293,10.320107],[123.90547,10.320085],[123.905665,10.319999],[123.905796,10.319922],[123.905943,10.319818],[123.906103,10.319696],[123.906324,10.319533],[123.906526,10.319393],[123.906885,10.319117],[123.907186,10.318874],[123.907379,10.318718],[123.907586,10.318564],[123.907921,10.318292],[123.908015,10.318408],[123.908203,10.318632],[123.908389,10.318827],[123.908657,10.319069],[123.908964,10.31934],[123.909254,10.319587],[123.909457,10.319748],[123.90967,10.319865],[123.909846,10.319977],[123.910157,10.320172],[123.910364,10.320307],[123.910635,10.320479],[123.910783,10.320568],[123.910934,10.320317],[123.911086,10.320061],[123.91121,10.319865],[123.911334,10.319676],[123.91147,10.319441],[123.911582,10.319242],[123.911742,10.318977],[123.911876,10.318766],[123.912044,10.318504],[123.912162,10.318319],[123.912291,10.318103],[123.912444,10.317859],[123.912545,10.317703],[123.912676,10.317497],[123.912811,10.317275],[123.912973,10.317],[123.913224,10.316605],[123.913352,10.316402],[123.913523,10.316096],[123.913637,10.315912],[123.913794,10.315651],[123.91393,10.315456],[123.914149,10.315104],[123.914368,10.314755],[123.914506,10.314539],[123.914646,10.314298],[123.91481,10.314001],[123.91494,10.313802],[123.915118,10.313565],[123.915301,10.313339],[123.915572,10.313037],[123.915742,10.312848],[123.915931,10.312623],[123.916063,10.312457],[123.916267,10.312219],[123.916638,10.311783],[123.916839,10.311536],[123.917069,10.311271],[123.917215,10.31109],[123.917331,10.310945]]]}}]}