{"type":"FeatureCollection","features":[{"type":"Feature","properties":{},"geometry":{"type":"MultiLineString","coordinates":[[[123.916844,10.369341],[123.916628,10.369273],[123.916324,10.369121],[123.916091,10.368984],[123.915825,10.368814],[123.915555,10.368643],[123.915215,10.36843],[123.914825,10.368187],[123.914406,10.367923],[123.914081,10.367716],[123.913968,10.367565],[123.913907,10.367371],[123.913873,10.367081],[123.91385,10.366879],[123.913842,10.366606],[123.913842,10.366267],[123.913836,10.36592],[123.913846,10.365511],[123.913884,10.365273],[123.91403,10.365027],[123.914095,10.364999],[123.914198,10.364914],[123.914494,10.364684],[123.914637,10.364525],[123.914753,10.364298],[123.914842,10.36396],[123.914956,10.363546],[123.915021,10.363275],[123.915123,10.362922],[123.915201,10.362607],[123.915301,10.362159],[123.915356,10.361896],[123.915351,10.361635],[123.915322,10.361418],[123.9153,10.3612],[123.915293,10.360843],[123.915336,10.36063],[123.915418,10.360283],[123.915481,10.359998],[123.915568,10.359521],[123.91562,10.359187],[123.91568,10.358875],[123.915689,10.358729],[123.915669,10.358621],[123.915617,10.358467],[123.915522,10.358302],[123.915326,10.35803],[123.915201,10.357857],[123.915118,10.357708],[123.915087,10.357534],[123.915088,10.357223],[123.915082,10.356729],[123.915073,10.356374],[123.915066,10.356014],[123.915067,10.35591],[123.915034,10.355672],[123.914952,10.355425],[123.914852,10.35522],[123.914726,10.354967],[123.914645,10.354805],[123.914575,10.354575],[123.914508,10.354309],[123.914408,10.353984],[123.914334,10.3537],[123.914224,10.353307],[123.914153,10.35304],[123.914092,10.352798],[123.914017,10.352525],[123.913929,10.352206],[123.913782,10.35163],[123.913713,10.351325],[123.913605,10.350884],[123.913555,10.35059],[123.913492,10.350257],[123.913429,10.349889],[123.913341,10.34944],[123.913277,10.349101],[123.913196,10.348687],[123.913108,10.348201],[123.913046,10.347885],[123.912965,10.347462],[123.912897,10.347074],[123.912836,10.346714],[123.91277,10.346267],[123.912713,10.345922],[123.912648,10.345573],[123.912563,10.345152],[123.912493,10.34479],[123.91245,10.34452],[123.912382,10.344121],[123.912329,10.343832],[123.912276,10.343521],[123.91222,10.343166],[123.912156,10.342784],[123.912107,10.342487],[123.912033,10.342047],[123.911986,10.341748],[123.911912,10.341309],[123.911858,10.341012],[123.911792,10.340634],[123.911737,10.340406],[123.911671,10.33993],[123.911593,10.339458],[123.911504,10.338932],[123.911426,10.338441],[123.911343,10.337935],[123.911277,10.337502],[123.911188,10.337022],[123.911099,10.33655],[123.911005,10.336011],[123.910919,10.335561],[123.910834,10.335046],[123.910722,10.334401],[123.910637,10.333994],[123.910544,10.333522],[123.910458,10.333095],[123.910362,10.332625],[123.910262,10.332185],[123.910086,10.331527],[123.909976,10.331186],[123.909876,10.330886],[123.909712,10.330498],[123.909528,10.330051],[123.909191,10.329255],[123.908962,10.328692],[123.908661,10.328015],[123.908552,10.327779]],[[123.908552,10.327779],[123.908505,10.327692],[123.908399,10.327545],[123.908196,10.327116],[123.907931,10.326569],[123.907735,10.326165],[123.90756,10.325993]],[[123.907555,10.325988],[123.907066,10.325443],[123.906959,10.325273],[123.906737,10.324971],[123.906558,10.324645],[123.906344,10.324331],[123.906133,10.323981],[123.905765,10.323411],[123.905503,10.323008],[123.905232,10.322605],[123.904967,10.322193],[123.904688,10.321788],[123.904381,10.321414],[123.904136,10.321033],[123.903802,10.320499],[123.90374,10.320376],[123.904403,10.320085],[123.90477,10.320041],[123.905166,10.320082],[123.905506,10.320083],[123.905866,10.319867],[123.906224,10.319612],[123.907011,10.319029],[123.907714,10.318453],[123.907818,10.318375]],[[123.907818,10.318375],[123.908059,10.318172],[123.908536,10.317721],[123.90881,10.317413],[123.908951,10.317117],[123.909,10.316738],[123.908942,10.316448],[123.908773,10.316164],[123.908464,10.315843],[123.90822,10.315627],[123.907934,10.315531],[123.907668,10.315557],[123.90736,10.315677],[123.906882,10.315906],[123.906531,10.316069],[123.906146,10.316159],[123.905722,10.316258],[123.905077,10.316428],[123.904439,10.316603],[123.904198,10.316753],[123.903862,10.317116],[123.903597,10.317305],[123.903088,10.31754],[123.902616,10.317779],[123.90242,10.317367],[123.902286,10.317062],[123.902141,10.316736],[123.902027,10.316447],[123.901933,10.316172],[123.901829,10.315871],[123.901694,10.315477],[123.901644,10.315396],[123.901596,10.31536],[123.901933,10.314705],[123.902293,10.31401],[123.902636,10.313347],[123.903024,10.312605],[123.903256,10.312147],[123.903547,10.311583],[123.903864,10.310956],[123.903949,10.310782],[123.90393,10.31069],[123.903867,10.31048],[123.903768,10.310228],[123.903662,10.309905],[123.903501,10.309468],[123.903401,10.309106],[123.903234,10.30849],[123.903105,10.308054],[123.902906,10.307608],[123.902708,10.307207],[123.90249,10.306738],[123.902346,10.306515],[123.902018,10.30617],[123.901683,10.305925],[123.901409,10.305729]],[[123.901409,10.305729],[123.901219,10.305967],[123.901011,10.306228],[123.900736,10.306483],[123.900612,10.306552],[123.900391,10.306615],[123.900106,10.306646],[123.899744,10.306671],[123.899699,10.306667],[123.899738,10.306389],[123.89979,10.305883],[123.899835,10.305594],[123.899875,10.30529],[123.899868,10.305152],[123.899571,10.305085],[123.899045,10.304954],[123.898779,10.304866],[123.898339,10.304746],[123.898161,10.304677],[123.898164,10.304506],[123.89818,10.304068],[123.898204,10.303633],[123.898218,10.303225],[123.898209,10.302944],[123.89824,10.302552],[123.898245,10.302293],[123.898233,10.301993],[123.898326,10.301758],[123.898454,10.301556],[123.898612,10.301267],[123.898736,10.301033],[123.898922,10.300681],[123.899034,10.300479],[123.899186,10.300201],[123.899397,10.299815],[123.899674,10.29937],[123.899801,10.299125],[123.899962,10.298866],[123.900193,10.298441],[123.900434,10.297993],[123.900646,10.297598],[123.900932,10.297664],[123.901335,10.297729],[123.901641,10.297759],[123.902118,10.297801],[123.902559,10.297836],[123.903108,10.297891],[123.903676,10.297923],[123.903741,10.297917],[123.903786,10.297529],[123.903811,10.297195],[123.903442,10.297139],[123.903063,10.297062],[123.902759,10.297016],[123.90239,10.296944],[123.902063,10.296906],[123.901734,10.296889],[123.901376,10.296871],[123.901149,10.296812],[123.900968,10.296725],[123.900722,10.29662],[123.900513,10.296522],[123.900278,10.296415],[123.900055,10.296293],[123.899939,10.296193],[123.899716,10.295955],[123.899548,10.295776],[123.899449,10.295649],[123.899373,10.295407],[123.899298,10.295175],[123.899198,10.294837],[123.899116,10.294587],[123.899057,10.294367],[123.899008,10.294205],[123.898934,10.29393],[123.898869,10.293686],[123.898788,10.293407],[123.898672,10.293016],[123.898545,10.292581],[123.898475,10.29235],[123.898934,10.292209],[123.899462,10.29205],[123.899606,10.292015],[123.899828,10.292067],[123.900028,10.292124],[123.900322,10.292174],[123.900677,10.292279],[123.901113,10.292377],[123.901052,10.292636],[123.901074,10.292962],[123.901167,10.293347],[123.9013,10.293888],[123.901416,10.294391],[123.901587,10.295018],[123.901742,10.295507],[123.901903,10.29601],[123.902054,10.296526],[123.902145,10.296831],[123.902144,10.297063],[123.902066,10.297777],[123.901972,10.298038],[123.901897,10.298431],[123.901799,10.298894],[123.901716,10.299273],[123.901609,10.299792],[123.901488,10.300314],[123.901314,10.30066],[123.901134,10.300955],[123.900998,10.301143],[123.900919,10.301368],[123.900801,10.301696],[123.900772,10.301894],[123.900673,10.302073],[123.900448,10.302494],[123.900265,10.302926],[123.90016,10.30329],[123.900123,10.303483],[123.900093,10.303914],[123.900008,10.30436],[123.899921,10.304681],[123.899892,10.305032],[123.899902,10.305235],[123.899867,10.305533],[123.899825,10.305931],[123.899777,10.306309],[123.899731,10.306651],[123.899892,10.306643],[123.900274,10.306613],[123.900489,10.306567],[123.900642,10.306506],[123.900746,10.306443],[123.900953,10.306241],[123.901118,10.306053],[123.901327,10.305782],[123.901395,10.305686],[123.901562,10.305805],[123.901835,10.306008],[123.90205,10.306166],[123.902281,10.306392],[123.902434,10.30659],[123.902581,10.306857],[123.902748,10.307215],[123.902911,10.307559],[123.903133,10.308037],[123.903226,10.30836],[123.903324,10.308711],[123.903409,10.309033],[123.903539,10.309489],[123.903655,10.309804],[123.903784,10.310165],[123.903889,10.310456],[123.903958,10.310693],[123.90398,10.310802],[123.903874,10.310997],[123.903752,10.311241],[123.903603,10.311535],[123.903427,10.311885],[123.903274,10.312182],[123.903165,10.312389],[123.903019,10.312667],[123.902802,10.313091],[123.902688,10.313308],[123.902535,10.313611],[123.902398,10.313876],[123.902247,10.314162],[123.902031,10.314577],[123.901887,10.31484],[123.901719,10.315186],[123.901633,10.315348],[123.901695,10.315415],[123.901726,10.315469],[123.901792,10.315668],[123.901885,10.315932],[123.90198,10.316219],[123.902068,10.316481],[123.902177,10.316765],[123.902309,10.317058],[123.902437,10.317332],[123.902587,10.317643],[123.902727,10.317971],[123.902897,10.318322],[123.903088,10.318728],[123.903291,10.319149],[123.903369,10.319355],[123.903515,10.319687],[123.903765,10.320232],[123.903958,10.320589],[123.904139,10.320877],[123.904338,10.321192],[123.904506,10.321457]],[[123.904506,10.321457],[123.904683,10.321678],[123.904787,10.321877],[123.904976,10.32216],[123.905201,10.3225],[123.905502,10.32296],[123.905784,10.323388],[123.906031,10.323773],[123.906327,10.324211],[123.906581,10.3246],[123.906871,10.325011],[123.90705,10.325279],[123.907353,10.325664],[123.907544,10.325836],[123.907743,10.326035],[123.907855,10.326172],[123.90794,10.326352],[123.908069,10.326629],[123.908258,10.327079],[123.908459,10.327495],[123.908579,10.327756],[123.908699,10.328043],[123.90885,10.328367],[123.909022,10.328767],[123.909249,10.329317],[123.909501,10.32991],[123.909729,10.33048],[123.909902,10.330879],[123.909984,10.33113],[123.910129,10.331581],[123.910207,10.331852],[123.910295,10.332182],[123.910368,10.332511],[123.910442,10.33287],[123.910507,10.333193],[123.91057,10.333497],[123.910626,10.333821],[123.910714,10.334208],[123.910772,10.334501],[123.910819,10.334778],[123.91088,10.335107],[123.910922,10.335407],[123.910982,10.335724],[123.911045,10.336057],[123.911108,10.336449],[123.911162,10.336737],[123.911223,10.337031],[123.911289,10.337377],[123.911343,10.337714],[123.911402,10.338116],[123.911449,10.338427],[123.91152,10.338801],[123.911599,10.339255],[123.911651,10.339644],[123.911722,10.340093],[123.911784,10.340483],[123.911846,10.340753],[123.911886,10.341017],[123.911963,10.341347],[123.912,10.341661],[123.912037,10.341908],[123.912103,10.342258],[123.912172,10.342705],[123.912241,10.343079],[123.91229,10.34341],[123.912364,10.343826],[123.912438,10.344244],[123.912492,10.344576],[123.91255,10.344917],[123.912591,10.345174],[123.912648,10.345442],[123.912699,10.345703],[123.91276,10.345999],[123.912805,10.346313],[123.912852,10.346632],[123.912913,10.347023],[123.912974,10.347383],[123.91305,10.347729],[123.913119,10.348108],[123.913213,10.348606],[123.913275,10.348948],[123.913374,10.349494],[123.913465,10.349946],[123.913506,10.350165],[123.913552,10.350431],[123.913641,10.350908],[123.913723,10.351257],[123.91381,10.351642],[123.913895,10.351964],[123.91398,10.352261],[123.914089,10.352678],[123.914215,10.353172],[123.91437,10.353715],[123.914449,10.354015],[123.914561,10.354417],[123.914639,10.35471],[123.914743,10.354938],[123.914878,10.355217],[123.914985,10.355449],[123.915059,10.355679],[123.915102,10.355973],[123.915106,10.356371],[123.915109,10.356762],[123.915114,10.357374],[123.91513,10.357655],[123.915192,10.357792],[123.915348,10.358016],[123.915559,10.35831],[123.915648,10.358466],[123.915699,10.358625],[123.91572,10.358769],[123.915688,10.358991],[123.915621,10.359379],[123.915521,10.359911],[123.915447,10.360265],[123.915348,10.360732],[123.915324,10.360853],[123.915325,10.361188],[123.915359,10.361473],[123.915393,10.361817],[123.915379,10.361955],[123.91526,10.362451],[123.915119,10.363036],[123.914976,10.363551],[123.914822,10.364167],[123.914752,10.364371],[123.914628,10.364574],[123.914494,10.36472],[123.914208,10.364952],[123.914067,10.365067],[123.913957,10.365265],[123.913929,10.36551],[123.913924,10.36606],[123.913937,10.366813],[123.913903,10.367017],[123.913921,10.367269],[123.913997,10.367556],[123.9141,10.367698],[123.914279,10.367816],[123.914529,10.367969],[123.914796,10.368141],[123.915099,10.368331],[123.91544,10.368537],[123.915762,10.368737],[123.916148,10.368984],[123.916425,10.369139],[123.916689,10.369268],[123.916854,10.369317]],[[123.916854,10.369317],[123.917013,10.369347],[123.917361,10.369417],[123.917708,10.369479],[123.918063,10.369559],[123.918336,10.369639],[123.918589,10.369725],[123.918818,10.369826],[123.918951,10.369897],[123.919124,10.370021],[123.919291,10.370165],[123.919495,10.370346],[123.919761,10.370592],[123.919951,10.370766],[123.920102,10.370851],[123.920237,10.370848],[123.920465,10.370665],[123.920664,10.370504],[123.920859,10.37041],[123.921029,10.370439],[123.921136,10.370456],[123.921309,10.370601],[123.921703,10.370932],[123.921898,10.37107],[123.922081,10.371137],[123.922296,10.371142],[123.92255,10.371152],[123.922744,10.371202],[123.923015,10.371264],[123.9233,10.371349],[123.92362,10.371444],[123.923894,10.371552],[123.924049,10.371612],[123.924105,10.371609],[123.924196,10.371482],[123.92431,10.371257],[123.924389,10.371132],[123.924537,10.371218]],[[123.924537,10.371218],[123.924509,10.371271]],[[123.924509,10.371271],[123.924375,10.3712],[123.924192,10.371549],[123.924114,10.371633],[123.924041,10.371641],[123.923918,10.37159],[123.923441,10.371429],[123.922933,10.371278],[123.922549,10.371185],[123.922125,10.371168],[123.921997,10.371141],[123.921803,10.37105],[123.921682,10.370944],[123.921485,10.370776],[123.921152,10.370511],[123.920975,10.370453],[123.920862,10.370442],[123.920734,10.370495],[123.920548,10.370643],[123.920254,10.37087],[123.920096,10.370881],[123.919913,10.370767],[123.919728,10.3706],[123.919386,10.37028],[123.919129,10.370055],[123.918871,10.369882],[123.918608,10.36976],[123.918309,10.369654],[123.917943,10.369564],[123.917605,10.369491],[123.917293,10.36943],[123.916844,10.369341]]]}}]}