{"type":"FeatureCollection","features":[{"type":"Feature","properties":{},"geometry":{"type":"MultiLineString","coordinates":[[[123.898819,10.292246],[123.898957,10.292205],[123.899168,10.292145],[123.899391,10.292074],[123.899596,10.291996],[123.899813,10.292047],[123.900171,10.292132],[123.900556,10.292232],[123.900911,10.292319],[123.901351,10.292426],[123.901765,10.292526],[123.902074,10.292607],[123.902251,10.292648],[123.902658,10.292486],[123.902989,10.292351],[123.90302,10.292338],[123.903031,10.292335],[123.903039,10.292336],[123.903044,10.292345],[123.903074,10.292424],[123.903119,10.292536],[123.903177,10.292676],[123.903251,10.292845],[123.90334,10.293041],[123.903463,10.293277],[123.903552,10.293454],[123.90366,10.293659],[123.903777,10.293908],[123.903926,10.294222],[123.904059,10.294475],[123.904221,10.2948],[123.904342,10.295055],[123.904434,10.295245],[123.904439,10.295255],[123.904447,10.295259],[123.904452,10.295259],[123.904462,10.295259],[123.904546,10.295217],[123.904683,10.295143],[123.904797,10.295087],[123.904943,10.29501],[123.905094,10.294937],[123.905146,10.294912],[123.905154,10.294909],[123.905164,10.294909],[123.905176,10.294912],[123.905181,10.294919],[123.905212,10.294987],[123.905266,10.29512],[123.905347,10.295326],[123.905417,10.2955],[123.905463,10.295622],[123.905514,10.295765],[123.905554,10.295931],[123.9056,10.296095],[123.905644,10.296261],[123.905688,10.29644],[123.905725,10.296612],[123.905769,10.29681],[123.905807,10.296991],[123.905853,10.297214],[123.905901,10.297442],[123.905936,10.297621],[123.905971,10.297805],[123.906009,10.298033],[123.906056,10.298275],[123.906089,10.298464],[123.906124,10.298654],[123.906162,10.298866],[123.906201,10.299069],[123.906259,10.299349],[123.906316,10.299636],[123.90637,10.299922],[123.906412,10.300258],[123.90644,10.300491],[123.906486,10.300777],[123.906509,10.300989],[123.906537,10.301223],[123.906562,10.301503],[123.906578,10.301789],[123.906581,10.301998],[123.906551,10.302223],[123.906519,10.302432],[123.906493,10.30265],[123.906454,10.302902],[123.906411,10.303169],[123.906363,10.303491],[123.906308,10.303819],[123.906251,10.304167],[123.906191,10.304541],[123.906177,10.304657],[123.906167,10.304896],[123.906149,10.305213],[123.906139,10.305443],[123.906131,10.30567],[123.906117,10.305915],[123.906148,10.306103],[123.906178,10.306303],[123.906128,10.306394],[123.906125,10.306402],[123.906125,10.306406],[123.906127,10.306414],[123.90617,10.306483],[123.906214,10.306547],[123.906234,10.306658],[123.906266,10.306834],[123.906301,10.307025],[123.90635,10.307186],[123.906433,10.307372],[123.906566,10.307622],[123.906683,10.307843],[123.9068,10.308081],[123.906889,10.308201],[123.906988,10.308418],[123.907158,10.308619],[123.907221,10.308723],[123.907248,10.30877],[123.907286,10.308829],[123.907319,10.308872],[123.907412,10.308995],[123.907537,10.309165],[123.907645,10.309317],[123.90773,10.309428],[123.907837,10.309573],[123.907945,10.309716],[123.90807,10.309883],[123.908245,10.310112],[123.908369,10.310282],[123.908504,10.310456],[123.908628,10.310609],[123.908765,10.310767],[123.908946,10.310962],[123.909122,10.311156],[123.909309,10.311341],[123.909469,10.311492],[123.909698,10.311695],[123.909861,10.311842],[123.909998,10.311933],[123.910236,10.312069],[123.910458,10.312194],[123.910684,10.31231],[123.91094,10.312437],[123.91118,10.312556],[123.911432,10.312672],[123.911722,10.312809],[123.912058,10.31296],[123.912324,10.31308],[123.912607,10.31322],[123.912874,10.313352],[123.913233,10.31354],[123.913594,10.31372],[123.913875,10.313859],[123.914212,10.314028],[123.91445,10.314142],[123.914631,10.314227],[123.914695,10.314259],[123.914714,10.314271],[123.914727,10.314285],[123.914729,10.3143],[123.914724,10.314315],[123.914718,10.31433],[123.914673,10.314405],[123.914572,10.314565],[123.914484,10.314712],[123.914354,10.314917],[123.914262,10.315069],[123.91413,10.315274],[123.914002,10.315468],[123.913921,10.315595],[123.91381,10.315771],[123.913695,10.315944],[123.913563,10.316149],[123.913437,10.316365],[123.913319,10.316555],[123.913099,10.316927],[123.912877,10.317303],[123.912743,10.317532],[123.912605,10.317756],[123.912449,10.317989],[123.912245,10.31832],[123.912116,10.318528],[123.911951,10.318785],[123.911842,10.318969],[123.911694,10.31923],[123.911514,10.319507],[123.91137,10.319733],[123.911236,10.319952],[123.911126,10.320126],[123.910992,10.320346],[123.910883,10.320539],[123.910852,10.320592],[123.910849,10.320606],[123.910851,10.320621],[123.910859,10.320634],[123.910871,10.320647],[123.910905,10.320684],[123.911038,10.320766],[123.911205,10.320863],[123.911429,10.320997],[123.911689,10.321158],[123.911928,10.321299],[123.912183,10.321453],[123.912447,10.321627],[123.912702,10.321793],[123.912931,10.321978],[123.913242,10.322266],[123.913462,10.322487],[123.913726,10.322743],[123.913903,10.322931],[123.914139,10.323167],[123.914335,10.323366],[123.914628,10.323677],[123.914862,10.32392],[123.915072,10.324141],[123.9153,10.324373],[123.915522,10.324601],[123.915719,10.324803],[123.915957,10.325031],[123.91616,10.325245],[123.9164,10.325487],[123.91656,10.325645],[123.916748,10.32583],[123.916866,10.325919],[123.916897,10.325942],[123.916929,10.325958],[123.916973,10.325973],[123.917055,10.325982],[123.917139,10.325977],[123.917268,10.325947],[123.917792,10.325813],[123.918317,10.325675],[123.918755,10.32556],[123.919103,10.325481],[123.919335,10.325433],[123.91937,10.325427],[123.919402,10.325427],[123.919437,10.325431],[123.919475,10.325439],[123.919511,10.325451],[123.919549,10.325471],[123.919598,10.325501],[123.919664,10.325552],[123.919722,10.325611],[123.919798,10.325709],[123.919898,10.32587],[123.91999,10.326036],[123.920103,10.326243],[123.920219,10.326444],[123.920346,10.326668],[123.920436,10.326825],[123.92045,10.326851],[123.920466,10.32687],[123.920523,10.32692],[123.920654,10.32702],[123.920769,10.327098],[123.920961,10.327209],[123.920987,10.327223],[123.920999,10.32723],[123.921003,10.327234],[123.921006,10.327241],[123.921007,10.327247],[123.921004,10.327252],[123.921001,10.327257],[123.920995,10.32726],[123.920989,10.32726],[123.920984,10.327259],[123.920961,10.327245],[123.920903,10.327213],[123.920837,10.327174],[123.920822,10.327165]],[[123.920822,10.327165],[123.920716,10.327099],[123.920633,10.327042],[123.920602,10.327026],[123.920542,10.32697],[123.920461,10.326903],[123.920447,10.326893],[123.920373,10.326783],[123.920324,10.326701],[123.920284,10.326628],[123.920239,10.326546],[123.920194,10.326462],[123.920155,10.326394],[123.920118,10.326324],[123.920074,10.326249],[123.920031,10.326174],[123.919993,10.3261],[123.91995,10.326023],[123.919901,10.325933],[123.91985,10.325845],[123.919775,10.325729],[123.91971,10.325642],[123.919636,10.325564],[123.919576,10.325511],[123.919514,10.325478],[123.919433,10.325455],[123.91936,10.325453],[123.919258,10.325474],[123.919157,10.325496],[123.919025,10.325526],[123.918924,10.325549],[123.918795,10.325581],[123.918655,10.325616],[123.918509,10.325654],[123.918406,10.325683],[123.918246,10.325724],[123.918073,10.32577],[123.917953,10.325802],[123.917828,10.325834],[123.917673,10.325873],[123.917541,10.325905],[123.917345,10.325957],[123.917197,10.325994],[123.917141,10.326006],[123.917052,10.326007],[123.916986,10.326004],[123.916949,10.325995],[123.916885,10.325966],[123.916803,10.325906],[123.916698,10.325818],[123.916612,10.325728],[123.916529,10.32565],[123.916445,10.325572],[123.916354,10.325481],[123.916266,10.325392],[123.916161,10.325284],[123.916055,10.325174],[123.915944,10.325064],[123.915849,10.324966],[123.915746,10.324868],[123.915641,10.324759],[123.915543,10.324658],[123.915431,10.324546],[123.91529,10.324401],[123.915162,10.324277],[123.915008,10.324116],[123.914854,10.323952],[123.914703,10.323794],[123.914535,10.323623],[123.914407,10.323487],[123.914289,10.323361],[123.914189,10.323256],[123.914055,10.323124],[123.913935,10.322997],[123.913817,10.322877],[123.91369,10.322749],[123.913537,10.322593],[123.913426,10.322482],[123.913263,10.322332],[123.913149,10.322222],[123.913022,10.322094],[123.912924,10.322004],[123.91281,10.321916],[123.91268,10.32181],[123.912566,10.32173],[123.912433,10.321647],[123.912297,10.321559],[123.912166,10.321473],[123.912045,10.321396],[123.911873,10.321293],[123.911748,10.321218],[123.911652,10.321164],[123.911521,10.321084],[123.911419,10.321022],[123.91126,10.320927],[123.911149,10.320863],[123.910966,10.320753],[123.910884,10.32071],[123.910879,10.320708],[123.910875,10.320707],[123.910865,10.320706],[123.910832,10.320701],[123.910795,10.320694],[123.910774,10.320686],[123.910747,10.320671],[123.910736,10.320664],[123.910734,10.320659],[123.910734,10.320654],[123.910735,10.320649],[123.910738,10.320643],[123.910752,10.320614],[123.91079,10.320549],[123.91088,10.320399],[123.911023,10.320173],[123.911158,10.319955],[123.911321,10.319685],[123.911485,10.319412],[123.911655,10.319132],[123.911873,10.318779],[123.912034,10.31851],[123.912181,10.318274],[123.912366,10.317967],[123.912639,10.317549],[123.912922,10.317094],[123.913102,10.316789],[123.913276,10.316508],[123.91342,10.316267],[123.913553,10.316045],[123.913676,10.315848],[123.913808,10.315619],[123.913979,10.315354],[123.914138,10.315112],[123.914295,10.314858],[123.914452,10.314618],[123.914607,10.314351],[123.914651,10.31428],[123.914652,10.314276],[123.914652,10.314272],[123.914652,10.314267],[123.914649,10.314263],[123.914589,10.314233],[123.914522,10.3142],[123.9144,10.314143],[123.914299,10.314096],[123.914167,10.31403],[123.913994,10.313947],[123.913828,10.313863],[123.913675,10.313786],[123.913524,10.313711],[123.913342,10.313619],[123.913132,10.313513],[123.912991,10.313438],[123.912836,10.313362],[123.912597,10.313239],[123.912398,10.313143],[123.912144,10.313021],[123.911964,10.312941],[123.911814,10.312874],[123.911583,10.31277],[123.911469,10.31272],[123.911439,10.312707],[123.911395,10.312688],[123.91122,10.312604],[123.911078,10.312535],[123.910961,10.312475],[123.910781,10.312387],[123.910604,10.312295],[123.910413,10.312205],[123.910199,10.312086],[123.910003,10.311966],[123.90987,10.311881],[123.909837,10.311857],[123.909717,10.311748],[123.909561,10.311609],[123.909445,10.311504],[123.909337,10.311403],[123.909219,10.311295],[123.909125,10.311197],[123.908996,10.311062],[123.908894,10.310949],[123.908737,10.310777],[123.908619,10.31064],[123.908457,10.310434],[123.908333,10.310281],[123.908204,10.3101],[123.908094,10.309957],[123.907953,10.309771],[123.907795,10.309558],[123.907714,10.309449],[123.907674,10.309392],[123.907516,10.309184],[123.907388,10.309016],[123.907247,10.308821],[123.907237,10.308814],[123.907219,10.308808],[123.9072,10.308804],[123.907181,10.308798],[123.907163,10.308793],[123.907151,10.308786],[123.907144,10.308778],[123.907087,10.308709],[123.906992,10.308604],[123.906909,10.308512],[123.906808,10.308394],[123.906707,10.308276],[123.906615,10.308172],[123.90648,10.308005],[123.906385,10.307898],[123.906214,10.307696],[123.906041,10.307493],[123.905852,10.307263],[123.905712,10.307083],[123.905604,10.306931],[123.905505,10.306813],[123.905499,10.306807],[123.905497,10.306804],[123.905495,10.306801],[123.905494,10.306796],[123.905494,10.30679],[123.905497,10.306781],[123.905501,10.30677],[123.905508,10.306761],[123.90553,10.30674],[123.905615,10.30667],[123.905732,10.306584],[123.905847,10.306496],[123.90595,10.306421],[123.906039,10.30636],[123.906045,10.306354],[123.906056,10.306337],[123.906064,10.306308],[123.906069,10.306275],[123.906063,10.306173],[123.906066,10.306108],[123.906085,10.306011],[123.906095,10.305894],[123.906104,10.3057],[123.906113,10.305499],[123.90612,10.305346],[123.906128,10.305194],[123.906134,10.305062],[123.906145,10.304873],[123.906155,10.304685],[123.906171,10.304547],[123.906187,10.304447],[123.90621,10.304311],[123.906229,10.304196],[123.906256,10.304024],[123.906273,10.303925],[123.906298,10.303767],[123.906319,10.303628],[123.906352,10.303428],[123.906396,10.303143],[123.906425,10.302956],[123.906455,10.302757],[123.906489,10.302527],[123.906508,10.302379],[123.906534,10.302192],[123.906553,10.302025],[123.906557,10.301949],[123.906556,10.301799],[123.90655,10.301665],[123.906543,10.301543],[123.906532,10.301429],[123.906524,10.301337],[123.906503,10.301133],[123.906484,10.30097],[123.906463,10.30082],[123.906443,10.300659],[123.906412,10.300449],[123.906391,10.30028],[123.906371,10.300115],[123.906345,10.299941],[123.906314,10.299752],[123.906257,10.299465],[123.906223,10.29929],[123.906185,10.299104],[123.906162,10.298979],[123.906133,10.298837],[123.906108,10.298694],[123.906084,10.298558],[123.90606,10.298432],[123.906035,10.298278],[123.906001,10.298101],[123.905973,10.297954],[123.905942,10.29778],[123.905906,10.297595],[123.905875,10.297443],[123.905834,10.297228],[123.905755,10.296879],[123.905703,10.296626],[123.90568,10.296507],[123.905676,10.296488],[123.905672,10.296484],[123.905666,10.296481],[123.905657,10.296481],[123.905649,10.296482],[123.905589,10.296511],[123.905497,10.296553],[123.905379,10.296609],[123.905091,10.296746],[123.904819,10.296887],[123.904605,10.296975],[123.904353,10.29707],[123.904006,10.297175],[123.903829,10.297203],[123.903637,10.297173],[123.903128,10.297077],[123.902754,10.297017],[123.902391,10.296957],[123.902146,10.296906],[123.901963,10.296891],[123.901703,10.296884],[123.901386,10.296872],[123.901237,10.29684],[123.901158,10.296812],[123.901009,10.296754],[123.900811,10.296661],[123.90061,10.296565],[123.900376,10.296458],[123.900172,10.296365],[123.900099,10.296325],[123.900045,10.296286],[123.900009,10.296257],[123.899941,10.296192],[123.899785,10.29603],[123.899616,10.295846],[123.899533,10.29576],[123.899484,10.295696],[123.899459,10.295652],[123.899382,10.295422],[123.899349,10.295325],[123.899262,10.295069],[123.8992,10.294845],[123.899129,10.294616],[123.899046,10.294351],[123.898996,10.294156],[123.898939,10.293954],[123.898886,10.293753],[123.898827,10.293529],[123.898758,10.293297],[123.898679,10.293028],[123.898605,10.292788],[123.898532,10.292548],[123.898485,10.292385],[123.898482,10.292373],[123.898482,10.292366],[123.898482,10.292359],[123.898486,10.292353],[123.898491,10.292349],[123.898499,10.292344],[123.898582,10.292319],[123.898741,10.29227],[123.898819,10.292246]]]}}]}