{"type":"FeatureCollection","features":[{"type":"Feature","properties":{},"geometry":{"type":"MultiLineString","coordinates":[[[123.932901,10.324948],[123.932778,10.324832],[123.932636,10.324928],[123.932518,10.325011],[123.932426,10.325073],[123.932403,10.325083],[123.932335,10.325012],[123.932241,10.324929],[123.932109,10.324815],[123.931997,10.324688],[123.931911,10.324594],[123.931802,10.324451],[123.931705,10.324313],[123.931603,10.324154],[123.931484,10.323995],[123.931378,10.323829],[123.931213,10.323592],[123.931101,10.323403],[123.930967,10.323206],[123.930814,10.322959],[123.930665,10.322718],[123.930528,10.322497],[123.930408,10.322313],[123.930283,10.32211]],[[123.930283,10.32211],[123.930122,10.321836],[123.929958,10.32159],[123.929803,10.321353],[123.929666,10.321121],[123.9295,10.320875],[123.929388,10.320692],[123.929264,10.320509]],[[123.929264,10.320509],[123.92902,10.320129],[123.928823,10.320211],[123.928637,10.320284],[123.928444,10.320359],[123.928212,10.320447],[123.928006,10.320525],[123.927804,10.320609]],[[123.927804,10.320609],[123.927537,10.320712],[123.927291,10.320764],[123.927081,10.320806],[123.926843,10.320793],[123.926667,10.320767]],[[123.926667,10.320767],[123.926592,10.320759],[123.92652,10.32074],[123.926381,10.320698],[123.926186,10.320618],[123.92599,10.320533],[123.925952,10.32051],[123.925964,10.320414],[123.925968,10.320287],[123.925967,10.320155],[123.925962,10.320055],[123.925946,10.31993],[123.925914,10.31979],[123.925878,10.31964],[123.925805,10.319422],[123.92574,10.319196],[123.925685,10.318995],[123.925621,10.318819],[123.925542,10.318586],[123.925482,10.318418],[123.92544,10.318264],[123.92538,10.318088],[123.925318,10.317925],[123.925218,10.317653],[123.925146,10.317482],[123.925065,10.317298],[123.925001,10.317156],[123.924886,10.316917],[123.92477,10.316718],[123.924657,10.316524],[123.924558,10.316362],[123.92447,10.316236],[123.924315,10.316026],[123.924197,10.315859],[123.924074,10.315705],[123.92396,10.315556],[123.923841,10.315406],[123.9237,10.315228],[123.923574,10.315072],[123.923404,10.314861],[123.923271,10.314697],[123.923131,10.314518],[123.92299,10.314351],[123.922829,10.314167],[123.922678,10.313957],[123.922475,10.313722],[123.922321,10.313539],[123.922171,10.313412],[123.922023,10.313292],[123.921871,10.31316],[123.921724,10.313035],[123.921551,10.312887],[123.921499,10.312845],[123.921379,10.312997],[123.921277,10.31311],[123.92114,10.313289],[123.921035,10.313402],[123.920917,10.313531],[123.920796,10.313656],[123.920686,10.313751],[123.920606,10.313838],[123.920449,10.313929],[123.920363,10.313962],[123.920263,10.313993],[123.920132,10.314037],[123.920011,10.314076],[123.919887,10.314102],[123.91977,10.314118],[123.919644,10.314137],[123.919532,10.31416],[123.919419,10.31418],[123.919267,10.314204],[123.919127,10.314228],[123.918952,10.314261],[123.918778,10.314295],[123.918668,10.3143],[123.918623,10.314283],[123.918516,10.314231],[123.918428,10.314163],[123.918217,10.313994],[123.918073,10.31387],[123.917902,10.313734],[123.917758,10.313607],[123.917639,10.313508],[123.917456,10.313373],[123.917306,10.313255],[123.917161,10.313141],[123.917007,10.31302],[123.916855,10.312905],[123.916674,10.312754],[123.916442,10.312566],[123.916271,10.312438],[123.916131,10.312339],[123.915981,10.312221],[123.915864,10.312126],[123.915753,10.312032],[123.915631,10.311938],[123.915449,10.311792],[123.915298,10.31167],[123.915163,10.311562],[123.914958,10.311402],[123.914775,10.311248],[123.914631,10.311136]],[[123.914631,10.311136],[123.914398,10.310955],[123.914231,10.310821],[123.914112,10.310721],[123.913993,10.310621],[123.913856,10.310515],[123.91365,10.310344]],[[123.913651,10.310345],[123.913456,10.310187],[123.913301,10.310058],[123.913157,10.309938],[123.912998,10.309804],[123.912861,10.309692],[123.912733,10.309585],[123.912609,10.309483],[123.912471,10.309368],[123.912317,10.309239],[123.912157,10.309111],[123.91197,10.308956],[123.911811,10.308825],[123.91168,10.308723],[123.911467,10.308543],[123.911257,10.308366],[123.911093,10.308234],[123.910947,10.308113],[123.9108,10.307989],[123.910653,10.307871],[123.910462,10.307718],[123.910281,10.307578],[123.910085,10.307427],[123.90995,10.307307],[123.909806,10.307184],[123.90979,10.307091],[123.909926,10.306943],[123.910069,10.306779],[123.910189,10.306628],[123.910343,10.306462],[123.910228,10.306363],[123.910131,10.306282],[123.910001,10.306164],[123.909868,10.306052],[123.909734,10.305941],[123.909638,10.305836],[123.909542,10.305711],[123.909476,10.305617],[123.909402,10.305463],[123.909327,10.305307],[123.909289,10.305171],[123.909231,10.304998],[123.909183,10.304832],[123.90933,10.304746],[123.909447,10.304663],[123.909626,10.304546],[123.90974,10.304476],[123.909688,10.304321],[123.909616,10.304092],[123.909558,10.303923],[123.909489,10.303731],[123.909445,10.303598],[123.909402,10.303471],[123.909342,10.303303],[123.909275,10.303114],[123.909239,10.302999],[123.90918,10.302838],[123.909133,10.302714],[123.909093,10.302574],[123.909047,10.302445],[123.909005,10.302318],[123.908981,10.302181],[123.908967,10.302058],[123.908973,10.301968],[123.908975,10.30191],[123.908811,10.301922],[123.9087,10.301923],[123.908571,10.301924],[123.908444,10.301928],[123.908327,10.301936],[123.908196,10.30194],[123.908054,10.301937],[123.907887,10.301947],[123.907689,10.301954],[123.907543,10.301953],[123.907355,10.301957],[123.90718,10.301954],[123.907032,10.301946],[123.906828,10.30194],[123.906568,10.301924],[123.906573,10.301729],[123.90656,10.301548],[123.906547,10.301444],[123.906542,10.301292],[123.906532,10.30117],[123.906512,10.301041],[123.906486,10.300864],[123.906461,10.300706],[123.906439,10.300558],[123.90641,10.300339],[123.906391,10.300188],[123.906364,10.299994],[123.90632,10.299763],[123.906274,10.299508],[123.906231,10.299303],[123.906188,10.299076],[123.906146,10.298845],[123.906112,10.298675],[123.906069,10.298413],[123.906052,10.298344],[123.90602,10.298131],[123.905972,10.297915],[123.905944,10.297743],[123.905912,10.297581],[123.905878,10.297416],[123.905836,10.297232],[123.905811,10.297065],[123.905775,10.296896],[123.905742,10.296751],[123.905707,10.29659],[123.905677,10.29647],[123.905564,10.296531],[123.905366,10.296625],[123.905195,10.296694],[123.905016,10.296781],[123.904865,10.296857],[123.904691,10.296938],[123.904482,10.29703],[123.904298,10.297087],[123.904096,10.297143],[123.90395,10.297182],[123.903861,10.297206],[123.903712,10.297183],[123.90348,10.297143],[123.903309,10.297111],[123.903099,10.297074],[123.902923,10.297036],[123.902802,10.297018],[123.902623,10.29699],[123.902483,10.296971],[123.90233,10.296946],[123.902197,10.29692],[123.902037,10.296896],[123.901902,10.29689],[123.901729,10.296882],[123.901542,10.29688],[123.901381,10.296868],[123.901239,10.296837],[123.901101,10.296789],[123.900928,10.296714],[123.900773,10.296638],[123.90063,10.296572],[123.900483,10.296506],[123.900303,10.296428],[123.900186,10.296374],[123.90005,10.296295],[123.900011,10.296257],[123.899872,10.296323],[123.899751,10.296382],[123.899592,10.29646],[123.899451,10.296528],[123.899307,10.296589],[123.899135,10.296688],[123.899043,10.296747],[123.89897,10.296867],[123.89891,10.296988],[123.898819,10.297168],[123.898736,10.297316],[123.898663,10.297451],[123.898605,10.297566],[123.898517,10.297738],[123.898456,10.29787],[123.8984,10.297975],[123.898349,10.29808],[123.898292,10.298176],[123.898166,10.298111],[123.898049,10.298049],[123.897917,10.297979],[123.897759,10.297892],[123.897637,10.297825],[123.897526,10.297771],[123.897397,10.297717],[123.89725,10.297674],[123.896952,10.297585],[123.896706,10.297512],[123.896501,10.297452],[123.896309,10.297401],[123.896134,10.297348],[123.896013,10.297311],[123.895977,10.297435],[123.895936,10.297577],[123.895888,10.297731],[123.895847,10.297867],[123.895808,10.298001],[123.895762,10.298162],[123.895723,10.298302],[123.895687,10.298425],[123.895647,10.298561],[123.895608,10.298677],[123.895579,10.298767],[123.895554,10.298853],[123.895528,10.298922],[123.895448,10.298933],[123.895341,10.298944],[123.895239,10.298957],[123.895161,10.298968],[123.895018,10.298992],[123.89487,10.299016],[123.894725,10.299042],[123.894628,10.299058],[123.894419,10.299092],[123.894244,10.299132],[123.89409,10.299165],[123.893904,10.299215],[123.893904,10.299402]],[[123.893904,10.299402],[123.893915,10.299584],[123.893905,10.299716],[123.893881,10.299835],[123.893838,10.300003],[123.893787,10.300149],[123.893715,10.300271],[123.893627,10.300427],[123.893554,10.300573],[123.893479,10.300708],[123.893438,10.300831],[123.893399,10.301007],[123.893341,10.301178],[123.893283,10.301342],[123.893232,10.301525],[123.893188,10.301673],[123.893142,10.301836],[123.893096,10.302],[123.893057,10.302172],[123.893024,10.302339],[123.893003,10.302492],[123.892992,10.302584],[123.89298,10.302707],[123.892968,10.302832],[123.892956,10.302942],[123.89294,10.303051],[123.89292,10.303171],[123.892899,10.303308],[123.892876,10.303422],[123.892855,10.303523],[123.892962,10.303535],[123.893148,10.303566],[123.893263,10.303583],[123.893301,10.303587],[123.893279,10.303706],[123.893253,10.303845],[123.893216,10.303991],[123.893183,10.304109],[123.893151,10.304237],[123.893112,10.304401],[123.893089,10.304512],[123.893072,10.304626],[123.893054,10.304743],[123.893042,10.304865],[123.893033,10.304909],[123.892845,10.304856],[123.89268,10.304811],[123.892534,10.304766],[123.892405,10.304705]],[[123.892405,10.304705],[123.892573,10.304259],[123.892796,10.303641],[123.892843,10.303459],[123.892903,10.303105],[123.892953,10.302731],[123.89299,10.302408],[123.893041,10.302131],[123.893114,10.301862],[123.893175,10.301641],[123.893255,10.301376],[123.893335,10.301138],[123.89339,10.300954],[123.893436,10.300765],[123.893491,10.300642],[123.893557,10.30052],[123.893679,10.300296],[123.89377,10.300134],[123.893844,10.299918],[123.89389,10.299639],[123.893882,10.299204],[123.894123,10.299141],[123.894445,10.299071],[123.894699,10.299031],[123.894996,10.298978],[123.895216,10.298939],[123.895504,10.298903],[123.895562,10.298751],[123.895655,10.298463],[123.895772,10.298052],[123.895858,10.297756],[123.895961,10.297409],[123.89603,10.297165],[123.896126,10.29684],[123.896278,10.296319],[123.896401,10.295896],[123.896498,10.295551],[123.896545,10.295462],[123.896761,10.295571],[123.897045,10.2957],[123.897377,10.295848],[123.897802,10.29605],[123.898166,10.296233],[123.898485,10.296419],[123.898927,10.296677],[123.899318,10.296886],[123.899622,10.297069],[123.899958,10.297275],[123.900212,10.297414],[123.900506,10.297554],[123.900708,10.297621],[123.901137,10.297695],[123.901419,10.297729],[123.901795,10.297761],[123.901986,10.297774],[123.902284,10.297796],[123.902669,10.297844],[123.90305,10.297881],[123.903431,10.297899],[123.903648,10.297907],[123.903732,10.297908],[123.903697,10.298434],[123.903776,10.298757],[123.904224,10.298681],[123.904795,10.29859],[123.905187,10.298524],[123.905513,10.298474],[123.905905,10.298397],[123.906077,10.29834],[123.906134,10.298678],[123.906199,10.299019],[123.906277,10.299437],[123.906347,10.299807],[123.9064,10.300105],[123.906446,10.300477],[123.906499,10.300828],[123.906549,10.301178],[123.906569,10.301471],[123.90659,10.301867],[123.90654,10.302301],[123.906471,10.30281],[123.906392,10.30336],[123.906319,10.303792],[123.906246,10.304241],[123.906179,10.304697],[123.906159,10.305184],[123.90613,10.305743],[123.906118,10.306007],[123.906172,10.306154],[123.906141,10.306402],[123.906229,10.306579],[123.906289,10.306849],[123.906328,10.30706],[123.906412,10.307296],[123.906563,10.307583],[123.906689,10.307831],[123.906842,10.308139],[123.907037,10.30841],[123.907137,10.30852],[123.907425,10.308564],[123.907709,10.308388],[123.90811,10.308144],[123.908503,10.307907],[123.908871,10.307689],[123.909306,10.307434],[123.90969,10.307208],[123.909836,10.307103],[123.910193,10.307377],[123.910541,10.307668],[123.910881,10.307947],[123.911248,10.308253],[123.911652,10.308583],[123.912158,10.308995],[123.912624,10.309388],[123.913127,10.309801],[123.913618,10.310202],[123.91402,10.310544],[123.914417,10.310872],[123.914826,10.311181],[123.915406,10.311657],[123.915918,10.312076],[123.916178,10.312294],[123.916563,10.312597],[123.916854,10.312864],[123.917016,10.313009],[123.917424,10.313315],[123.917826,10.313639],[123.918138,10.313905],[123.918552,10.314236],[123.918678,10.314286],[123.918884,10.314263],[123.919163,10.314208],[123.919585,10.314137],[123.919885,10.314087],[123.920015,10.31406],[123.92038,10.313938],[123.920436,10.313913],[123.920601,10.313813],[123.920825,10.313601],[123.9211,10.313307],[123.921329,10.31302],[123.921514,10.312795],[123.921956,10.313158],[123.922375,10.313483],[123.922666,10.313831],[123.923071,10.314309],[123.923504,10.31484],[123.924056,10.315537],[123.924475,10.316085],[123.924688,10.316391],[123.924977,10.316838],[123.92517,10.317242],[123.925366,10.31773],[123.925584,10.318401],[123.925765,10.318989],[123.925955,10.319587],[123.926057,10.320066],[123.926054,10.320442],[123.926195,10.320509],[123.92656,10.320645],[123.926861,10.320707],[123.927064,10.32072],[123.927221,10.320698],[123.927429,10.320646],[123.927698,10.320553],[123.928072,10.320398],[123.928742,10.320129],[123.929178,10.319955],[123.929646,10.319761],[123.930265,10.319507],[123.930756,10.319307],[123.931059,10.319149],[123.931392,10.318936],[123.931559,10.318831],[123.93178,10.319101],[123.932096,10.319445],[123.932385,10.319749],[123.932775,10.320163],[123.933094,10.320514],[123.933486,10.320917],[123.933773,10.321238],[123.934124,10.321602],[123.934494,10.322003],[123.934794,10.322294],[123.935143,10.32264],[123.935285,10.322785],[123.934993,10.323152],[123.934594,10.32367],[123.934987,10.323972],[123.935592,10.32444],[123.936031,10.324769],[123.936192,10.324887],[123.935844,10.325315],[123.935375,10.325915],[123.934803,10.32662],[123.934633,10.326831],[123.934313,10.326582],[123.934016,10.326341],[123.933673,10.326082],[123.933336,10.325821],[123.932991,10.325542],[123.932421,10.325095],[123.932582,10.324977],[123.932768,10.324854],[123.932879,10.324959],[123.932901,10.324948]]]}}]}