{"type":"FeatureCollection","features":[{"type":"Feature","properties":{},"geometry":{"type":"MultiLineString","coordinates":[[[123.903671,10.318966],[123.903915,10.318873],[123.903692,10.318395],[123.903563,10.318116],[123.903408,10.317776],[123.903272,10.317459],[123.903221,10.317353],[123.903501,10.317225],[123.903702,10.317069],[123.904026,10.316759],[123.904275,10.316579],[123.904654,10.316422],[123.905059,10.316316],[123.905591,10.316172],[123.905908,10.316095],[123.906385,10.315975],[123.906793,10.315835],[123.907284,10.315573],[123.907638,10.315429],[123.907734,10.315389],[123.907742,10.315202],[123.907821,10.315],[123.907974,10.314681],[123.908076,10.314454],[123.908264,10.314084],[123.908382,10.313941],[123.908531,10.31385],[123.908694,10.313837],[123.908904,10.313869],[123.90907,10.313962],[123.909301,10.313666],[123.909435,10.313498],[123.909479,10.313365],[123.909485,10.313207],[123.909402,10.312901],[123.909312,10.312558],[123.90931,10.312444],[123.909383,10.31234],[123.909535,10.312195],[123.909709,10.312035],[123.909853,10.311857],[123.910115,10.312006],[123.910512,10.31225],[123.910845,10.312394],[123.911166,10.312569],[123.911488,10.312705],[123.911866,10.312892],[123.912243,10.313053],[123.912634,10.313245],[123.912939,10.313398],[123.913416,10.313639],[123.913775,10.313833],[123.914217,10.314048],[123.914426,10.314129],[123.914615,10.314231],[123.914785,10.314312],[123.914958,10.314393],[123.915151,10.314481],[123.915398,10.314607],[123.915618,10.31472],[123.91576,10.314811],[123.915877,10.314913],[123.916013,10.315042],[123.91615,10.31518],[123.916308,10.31536],[123.916482,10.315553],[123.916645,10.315741],[123.916794,10.31591],[123.916959,10.316106],[123.917146,10.316331],[123.917289,10.316509],[123.917443,10.316679],[123.917608,10.316866],[123.917773,10.317076],[123.917947,10.317276],[123.918138,10.31749],[123.918311,10.317692],[123.918506,10.317917],[123.918646,10.318074],[123.918837,10.318282],[123.918998,10.31845],[123.919153,10.318592],[123.919323,10.318731],[123.919491,10.318861],[123.919677,10.319011],[123.919869,10.319148],[123.920091,10.319317],[123.920373,10.319523],[123.920663,10.319742],[123.920923,10.319955],[123.92118,10.320182],[123.921491,10.320448],[123.921786,10.320701],[123.922118,10.320975],[123.922393,10.321221],[123.922669,10.321455],[123.923008,10.321761],[123.92339,10.32208],[123.923708,10.322352],[123.923975,10.322596],[123.92429,10.32288],[123.924579,10.323121],[123.924773,10.323302],[123.925034,10.323527],[123.925329,10.323803],[123.925562,10.324003],[123.925765,10.324178],[123.926014,10.324405],[123.926311,10.324676],[123.926568,10.324897],[123.926816,10.325124],[123.927053,10.32534],[123.927334,10.32559],[123.927602,10.325829],[123.927833,10.326044],[123.92811,10.326299],[123.928344,10.32651],[123.928557,10.326719],[123.928807,10.326947],[123.929033,10.327159],[123.929247,10.327354],[123.929511,10.327609],[123.929972,10.328055],[123.930197,10.328267],[123.930472,10.328511],[123.930573,10.328599]],[[123.930573,10.328599],[123.930646,10.328599],[123.930921,10.328723],[123.931227,10.328841],[123.931475,10.328935],[123.931823,10.329077],[123.932295,10.329289],[123.932636,10.32944],[123.932835,10.329145],[123.933033,10.328871],[123.933226,10.328611],[123.933404,10.328378],[123.933626,10.328079],[123.933855,10.327767],[123.934031,10.327532],[123.934294,10.327183],[123.934465,10.326943],[123.934556,10.326728],[123.934619,10.326642],[123.934761,10.326757],[123.934952,10.326902],[123.935159,10.327052],[123.935321,10.32717],[123.93547,10.327279],[123.935593,10.327358],[123.935802,10.327436],[123.936037,10.327487],[123.936282,10.327474],[123.936454,10.327446],[123.936494,10.327436],[123.936581,10.327667],[123.936668,10.327897],[123.936762,10.328169],[123.936875,10.328376],[123.936954,10.328543],[123.937046,10.328725],[123.937189,10.328988],[123.937312,10.329233],[123.937364,10.329348],[123.937419,10.329505],[123.937472,10.329683],[123.937546,10.329895],[123.93762,10.330149],[123.937658,10.330281],[123.937855,10.330242],[123.938144,10.330177],[123.938363,10.330127],[123.9386,10.330068],[123.938819,10.330003],[123.939104,10.329908],[123.939322,10.32983],[123.939542,10.329739],[123.939749,10.329654],[123.939923,10.329576],[123.940217,10.32944],[123.940432,10.329338],[123.940663,10.329225],[123.940873,10.329129],[123.941144,10.328987],[123.941328,10.328896],[123.941186,10.328441],[123.941068,10.32804],[123.940981,10.327726],[123.94088,10.32738],[123.940799,10.327116],[123.940685,10.3269],[123.940516,10.326599],[123.940345,10.326282],[123.940274,10.326169],[123.940144,10.326066],[123.939888,10.326005],[123.93977,10.325963],[123.939698,10.325878],[123.939622,10.325712],[123.939483,10.325383],[123.938881,10.325612],[123.93839,10.325797],[123.938017,10.325925],[123.937997,10.325745],[123.938499,10.325566],[123.938816,10.325446],[123.939099,10.32534],[123.939531,10.325165],[123.939905,10.32502],[123.940183,10.324915],[123.940684,10.32474],[123.940979,10.324615],[123.940552,10.323961],[123.940375,10.323666],[123.940639,10.32351],[123.940886,10.323859],[123.941073,10.324149],[123.941208,10.324376],[123.941272,10.324463],[123.941469,10.32482],[123.941627,10.325096],[123.941819,10.325412],[123.941967,10.325791],[123.942085,10.326131],[123.942226,10.326522],[123.942331,10.326745],[123.94251,10.326945],[123.942716,10.327064],[123.942833,10.327173],[123.94283,10.327369],[123.942762,10.327597],[123.942761,10.327827],[123.942801,10.328048],[123.942881,10.328317],[123.942964,10.328605],[123.943088,10.328959],[123.94317,10.329238],[123.943246,10.329496],[123.943357,10.329859],[123.94346,10.330198],[123.943538,10.330446],[123.943648,10.330803],[123.943742,10.331103],[123.943857,10.331519],[123.943956,10.331814],[123.944038,10.332092],[123.944159,10.332486],[123.944257,10.332823],[123.944378,10.333191],[123.944519,10.333638],[123.94465,10.334091],[123.944806,10.334582],[123.944955,10.335095],[123.945123,10.3356],[123.945256,10.335987],[123.945345,10.336296],[123.945458,10.336643],[123.945596,10.337077],[123.945746,10.337532],[123.945884,10.337982],[123.945971,10.338273],[123.946077,10.338638],[123.946171,10.338955],[123.946331,10.339468],[123.946459,10.339902],[123.946619,10.340176],[123.946779,10.340402],[123.946958,10.340672],[123.94704,10.340797],[123.947118,10.340763],[123.94734,10.341179],[123.947681,10.34106],[123.947731,10.341142],[123.948187,10.340946],[123.948252,10.340918],[123.948285,10.340946],[123.948355,10.341103],[123.948786,10.340939],[123.949387,10.340738],[123.949821,10.340572],[123.950048,10.340496],[123.950481,10.340333],[123.950858,10.340208],[123.951199,10.340079],[123.951448,10.339993],[123.951969,10.339809],[123.952725,10.339534],[123.953415,10.339286],[123.953809,10.339146],[123.954411,10.338926],[123.954892,10.338758],[123.954902,10.338539],[123.954548,10.338242],[123.954163,10.337916],[123.953778,10.337594],[123.953375,10.337253],[123.953014,10.336949],[123.952633,10.336621],[123.952441,10.336466],[123.951752,10.336413],[123.951562,10.336304],[123.95109,10.335929],[123.950797,10.335664],[123.950571,10.335287],[123.950341,10.334889],[123.950093,10.334442],[123.949889,10.33407],[123.949642,10.333621],[123.949438,10.333238],[123.949252,10.332914],[123.949035,10.332537],[123.948784,10.332105],[123.948558,10.331701],[123.948313,10.331272],[123.948061,10.330813],[123.947907,10.330555],[123.947858,10.330486],[123.947465,10.330741],[123.947071,10.33099],[123.946385,10.331416],[123.945915,10.331706],[123.945583,10.331934],[123.945031,10.33227],[123.944615,10.332521],[123.944134,10.332829],[123.943827,10.33301],[123.943476,10.333226],[123.943097,10.333455],[123.942703,10.333688],[123.942323,10.33391],[123.942008,10.334099],[123.941662,10.334298],[123.941282,10.334504],[123.94091,10.33467],[123.940528,10.334836],[123.940149,10.334988],[123.939619,10.335225],[123.939314,10.335427],[123.938785,10.335833],[123.938416,10.336131],[123.938221,10.336393],[123.938033,10.336627],[123.937753,10.337039],[123.937403,10.337544],[123.937099,10.337993],[123.936845,10.338347],[123.936579,10.33877],[123.936342,10.339121],[123.936096,10.339548],[123.935923,10.33981],[123.935669,10.3401],[123.935478,10.340249],[123.935277,10.340433],[123.935054,10.340654],[123.934833,10.340861],[123.934604,10.341101],[123.934445,10.341244],[123.934262,10.341107],[123.934059,10.340946],[123.933796,10.340753],[123.933747,10.340707],[123.93379,10.340592],[123.93397,10.340326],[123.933898,10.340178],[123.933705,10.339951],[123.933639,10.339855],[123.933917,10.339525],[123.934154,10.339296],[123.934373,10.339077],[123.934637,10.338823],[123.934915,10.338471],[123.935063,10.338201],[123.935102,10.33798],[123.934955,10.337795],[123.934722,10.337493],[123.934514,10.337208],[123.934323,10.336933],[123.934186,10.33669],[123.934027,10.336443],[123.933881,10.336168],[123.933708,10.335899],[123.933573,10.335646],[123.933457,10.335456],[123.933346,10.335221],[123.933323,10.335122],[123.933432,10.334999],[123.933708,10.334679],[123.933887,10.334464],[123.934054,10.334242],[123.934286,10.333957],[123.93448,10.333705],[123.93464,10.333488],[123.934804,10.333272],[123.934957,10.33306],[123.935111,10.332833],[123.935239,10.33263],[123.935353,10.332415],[123.935422,10.332287],[123.935486,10.332181],[123.935327,10.332076],[123.935024,10.331872],[123.934735,10.331683],[123.93455,10.33154],[123.934293,10.331359],[123.934074,10.331196],[123.933844,10.331027],[123.93359,10.330854],[123.933325,10.330659],[123.932994,10.330408],[123.932665,10.330193],[123.932382,10.329979],[123.932054,10.329763],[123.931645,10.329477],[123.931219,10.329167],[123.931019,10.328987],[123.930694,10.328728],[123.930539,10.328614],[123.930375,10.328459],[123.930173,10.328278],[123.930003,10.328116],[123.929814,10.327933],[123.929677,10.327806],[123.929398,10.327537],[123.929153,10.327312],[123.92897,10.327138],[123.928816,10.32699],[123.92855,10.326746],[123.92836,10.326566],[123.928188,10.326412],[123.927993,10.326227],[123.927743,10.326011],[123.92751,10.325779],[123.927275,10.325574],[123.926996,10.325319],[123.926796,10.325135],[123.926504,10.324879],[123.926185,10.324598],[123.925944,10.324382],[123.925696,10.324148],[123.925496,10.323979],[123.925294,10.32381],[123.925146,10.323665],[123.924965,10.323499],[123.924799,10.323356],[123.924675,10.323264],[123.924439,10.323044],[123.9243,10.322927],[123.923958,10.322623],[123.923665,10.322359],[123.923444,10.322162],[123.923299,10.322038],[123.923078,10.32185],[123.922851,10.321651],[123.92266,10.321478],[123.922432,10.321284],[123.92224,10.321113],[123.921988,10.320908],[123.921682,10.320637],[123.921486,10.320474],[123.92125,10.320268],[123.92103,10.32008],[123.920807,10.31989],[123.920522,10.319663],[123.920227,10.31944],[123.919969,10.31925],[123.919685,10.319045],[123.919531,10.318922],[123.919405,10.318822],[123.919202,10.318658],[123.919048,10.318537],[123.918851,10.318333],[123.918645,10.318101],[123.918442,10.317883],[123.918299,10.317703],[123.91811,10.317495],[123.91793,10.317285],[123.917768,10.31711],[123.917666,10.316979],[123.917439,10.316704],[123.91727,10.316522],[123.917153,10.316384],[123.91706,10.316254],[123.916966,10.316144],[123.916842,10.315997],[123.916691,10.315826],[123.916523,10.315629],[123.916382,10.315474],[123.916218,10.315287],[123.916077,10.31514],[123.91587,10.314938],[123.915668,10.314779],[123.915361,10.314611],[123.915027,10.314448],[123.914801,10.314344],[123.91472,10.314301],[123.914515,10.314665],[123.914187,10.3152],[123.913939,10.315572],[123.913781,10.315822],[123.913479,10.316292],[123.913171,10.316816],[123.912835,10.317361],[123.9126,10.317774],[123.91228,10.318253],[123.911944,10.318815],[123.911647,10.319296],[123.911359,10.319733],[123.910914,10.320488],[123.910785,10.320694],[123.910411,10.32047],[123.909901,10.320135],[123.909501,10.319892],[123.909097,10.31961],[123.908694,10.319265],[123.90837,10.318974],[123.907969,10.318571],[123.907844,10.318364],[123.908154,10.318089],[123.908444,10.317824],[123.908659,10.317572],[123.90881,10.317407],[123.908929,10.317175],[123.908986,10.316961],[123.908999,10.316686],[123.908976,10.316562],[123.908881,10.316314],[123.908809,10.316214],[123.909077,10.315973],[123.90913,10.315914],[123.909154,10.315798],[123.909171,10.315586],[123.909223,10.314785],[123.909228,10.314393],[123.909226,10.314202],[123.909118,10.314017],[123.90897,10.31392],[123.908846,10.313875],[123.908689,10.313853],[123.908521,10.313865],[123.908373,10.313967],[123.90827,10.314095],[123.908151,10.314335],[123.908029,10.314589],[123.907916,10.31484],[123.907797,10.315099],[123.907757,10.315214],[123.907748,10.315377],[123.907747,10.315544],[123.907482,10.315629],[123.907078,10.315814],[123.906716,10.316],[123.906287,10.316126],[123.905832,10.31622],[123.905324,10.316354],[123.904757,10.316506],[123.904295,10.316674],[123.904036,10.316926],[123.903711,10.317239],[123.90334,10.317426],[123.902954,10.317617],[123.902633,10.317769],[123.902797,10.318146],[123.903046,10.318695],[123.903336,10.319286],[123.903449,10.319388],[123.90359,10.319716],[123.903797,10.320203],[123.903882,10.320326]],[[123.903882,10.320326],[123.904467,10.320062],[123.904368,10.319835],[123.904205,10.319484],[123.903941,10.318922],[123.903823,10.318681],[123.903578,10.318782],[123.903671,10.318966]]]}}]}