{"type":"FeatureCollection","features":[{"type":"Feature","properties":{},"geometry":{"type":"MultiLineString","coordinates":[[[123.938009,10.325929],[123.937984,10.325758],[123.939015,10.325386],[123.939823,10.325061],[123.940687,10.324725],[123.941245,10.32455],[123.940931,10.324061],[123.940591,10.323535],[123.940551,10.323441],[123.940362,10.32314],[123.940097,10.322717],[123.940059,10.322639],[123.940053,10.322562],[123.940087,10.322508],[123.940283,10.322389],[123.940903,10.322],[123.94096,10.321964],[123.941024,10.321951],[123.941081,10.321998],[123.941381,10.322459],[123.941626,10.322844],[123.941803,10.323022],[123.942102,10.323464],[123.942459,10.323996],[123.942497,10.324071],[123.942059,10.324259],[123.941656,10.324455],[123.941442,10.324623],[123.941005,10.324812],[123.940406,10.325038],[123.939797,10.325259],[123.93931,10.325456],[123.938701,10.325688],[123.938089,10.325906],[123.937977,10.326015],[123.937727,10.326362],[123.93728,10.32694],[123.936966,10.32732],[123.936572,10.32754],[123.936242,10.327621],[123.935771,10.327596],[123.935511,10.327481],[123.935183,10.32725],[123.934657,10.326836],[123.934564,10.326802],[123.934306,10.327165],[123.933912,10.327707],[123.933293,10.328527],[123.932746,10.329274],[123.93264,10.329447],[123.932464,10.32937],[123.93225,10.329738],[123.932621,10.329997],[123.933104,10.330341],[123.93377,10.33082],[123.934477,10.331331],[123.935124,10.331779],[123.935557,10.332089],[123.935348,10.332442],[123.93515,10.332778],[123.934979,10.333067],[123.934815,10.33327],[123.9346,10.333562],[123.934302,10.333959],[123.934089,10.33423],[123.933753,10.334653],[123.933499,10.334944],[123.933283,10.335207],[123.933081,10.335422],[123.932759,10.335757],[123.932494,10.336017],[123.932293,10.336198],[123.932082,10.336388],[123.931891,10.336524],[123.931564,10.336761],[123.931302,10.336949],[123.93085,10.337247],[123.930538,10.337451],[123.930204,10.337685],[123.930025,10.337808],[123.929751,10.337965],[123.929428,10.338168],[123.929168,10.338308],[123.928867,10.338436],[123.928489,10.338572],[123.928067,10.338714],[123.92764,10.338802],[123.927252,10.338887],[123.926763,10.33899],[123.926435,10.339065],[123.926039,10.339148],[123.92566,10.339242],[123.925205,10.339359],[123.924864,10.339475],[123.924543,10.33955],[123.924046,10.339719],[123.923741,10.339827],[123.923385,10.339961],[123.922914,10.340129],[123.922603,10.34024],[123.922322,10.34034],[123.922022,10.340456],[123.921624,10.340595],[123.921311,10.340711],[123.920959,10.340835],[123.920671,10.340935],[123.920234,10.341089],[123.919903,10.341239],[123.9194,10.341479],[123.919096,10.341619],[123.918765,10.341773],[123.918374,10.341961],[123.918067,10.34211],[123.917828,10.342225],[123.917563,10.342341],[123.917281,10.342467],[123.916949,10.342608],[123.916644,10.342729],[123.916366,10.342841],[123.916054,10.342974],[123.915726,10.343078],[123.915268,10.343212],[123.91504,10.343248],[123.914571,10.343335],[123.914325,10.343363],[123.914062,10.343406],[123.913853,10.343443]],[[123.913853,10.343443],[123.91369,10.343509],[123.913356,10.343561],[123.912847,10.34364],[123.912452,10.3437],[123.912268,10.343732],[123.912231,10.343427],[123.912187,10.343179],[123.912136,10.342879],[123.912072,10.34255],[123.912012,10.342182],[123.91195,10.341822],[123.911921,10.341691],[123.91189,10.34153],[123.911881,10.341221],[123.911868,10.341081],[123.911803,10.340692],[123.911781,10.340574],[123.911735,10.340477],[123.911691,10.340249],[123.911657,10.340103],[123.911583,10.340024],[123.911177,10.340057],[123.911116,10.339665],[123.911049,10.339227],[123.910974,10.338761],[123.911489,10.338612],[123.911553,10.33899],[123.911669,10.33968],[123.911721,10.340033],[123.911779,10.340372],[123.911834,10.340635],[123.911885,10.340963],[123.911942,10.341286],[123.912043,10.341579],[123.912083,10.34182],[123.912146,10.342159],[123.912186,10.342449],[123.912258,10.342886],[123.91234,10.343357],[123.912523,10.343489],[123.912676,10.343526],[123.913129,10.343455],[123.913645,10.343371],[123.913804,10.343436],[123.914238,10.343355],[123.914652,10.343287],[123.915245,10.343192],[123.91589,10.343007],[123.916495,10.342761],[123.9172,10.342464],[123.917898,10.342163],[123.918898,10.341681],[123.91972,10.341299],[123.920227,10.341058],[123.920603,10.340929],[123.921254,10.340704],[123.921914,10.340465],[123.922522,10.340242],[123.922953,10.340091],[123.9236,10.339854],[123.924121,10.339666],[123.924722,10.339466],[123.924922,10.339384],[123.925121,10.339353],[123.925456,10.339266],[123.926044,10.339114],[123.926782,10.33896],[123.927243,10.338862],[123.928032,10.3387],[123.928448,10.338555],[123.928873,10.338411],[123.929163,10.338277],[123.929437,10.338135],[123.929737,10.337939],[123.930101,10.33772],[123.930499,10.337448],[123.93092,10.337167],[123.931335,10.336894],[123.931636,10.336679],[123.931796,10.336563],[123.932073,10.336347],[123.932337,10.33612],[123.932683,10.335792],[123.932958,10.335512],[123.933309,10.335132],[123.933518,10.334874],[123.933953,10.334363],[123.934348,10.333862],[123.934537,10.333604],[123.934926,10.333084],[123.935089,10.332837],[123.935315,10.332453],[123.935517,10.332088],[123.935684,10.331872],[123.936052,10.331503],[123.936684,10.331026],[123.937343,10.330551],[123.937388,10.330341],[123.937652,10.33028],[123.938369,10.330128],[123.93895,10.329964],[123.939752,10.329648],[123.940102,10.329493],[123.940685,10.329227],[123.941336,10.328881],[123.941179,10.328392],[123.941029,10.327887],[123.940879,10.327373],[123.940804,10.327128],[123.940707,10.326935],[123.940501,10.326567],[123.940318,10.326234],[123.940198,10.326104],[123.940057,10.326031],[123.939915,10.326005],[123.939764,10.325963],[123.939702,10.325881],[123.93964,10.325743],[123.939483,10.325385],[123.93844,10.325781],[123.938009,10.325929]]]}}]}