{"type":"FeatureCollection","features":[{"type":"Feature","properties":{},"geometry":{"type":"MultiLineString","coordinates":[[[123.924509,10.371271],[123.924375,10.3712],[123.924192,10.371549],[123.924114,10.371633],[123.924041,10.371641],[123.923918,10.37159],[123.923441,10.371429],[123.922933,10.371278],[123.922549,10.371185],[123.922125,10.371168],[123.921997,10.371141],[123.921803,10.37105],[123.921682,10.370944],[123.921485,10.370776],[123.921152,10.370511],[123.920975,10.370453],[123.920862,10.370442],[123.920734,10.370495],[123.920548,10.370643],[123.920254,10.37087],[123.920096,10.370881],[123.919913,10.370767],[123.919728,10.3706],[123.919386,10.37028],[123.919129,10.370055],[123.918871,10.369882],[123.918608,10.36976],[123.918309,10.369654],[123.917943,10.369564],[123.917605,10.369491],[123.917293,10.36943],[123.916844,10.369341],[123.916628,10.369273],[123.916324,10.369121],[123.916091,10.368984],[123.915825,10.368814],[123.915555,10.368643],[123.915215,10.36843],[123.914825,10.368187],[123.914406,10.367923],[123.914081,10.367716],[123.913968,10.367565],[123.913907,10.367371],[123.913873,10.367081],[123.91385,10.366879],[123.913842,10.366606],[123.913842,10.366267],[123.913836,10.36592],[123.913846,10.365511],[123.913884,10.365273],[123.91403,10.365027],[123.914095,10.364999],[123.914198,10.364914],[123.914494,10.364684],[123.914637,10.364525],[123.914753,10.364298],[123.914842,10.36396],[123.914956,10.363546],[123.915021,10.363275],[123.915123,10.362922],[123.915201,10.362607],[123.915301,10.362159],[123.915356,10.361896],[123.915351,10.361635],[123.915322,10.361418],[123.9153,10.3612],[123.915293,10.360843],[123.915336,10.36063],[123.915418,10.360283],[123.915481,10.359998],[123.915568,10.359521],[123.91562,10.359187],[123.91568,10.358875],[123.915689,10.358729],[123.915669,10.358621],[123.915617,10.358467],[123.915522,10.358302],[123.915326,10.35803],[123.915201,10.357857],[123.915118,10.357708],[123.915087,10.357534],[123.915088,10.357223],[123.915082,10.356729],[123.915073,10.356374],[123.915066,10.356014],[123.915067,10.35591],[123.915034,10.355672],[123.914952,10.355425],[123.914852,10.35522],[123.914726,10.354967],[123.914645,10.354805],[123.914575,10.354575],[123.914508,10.354309],[123.914408,10.353984],[123.914334,10.3537],[123.914224,10.353307],[123.914153,10.35304],[123.914092,10.352798],[123.914017,10.352525],[123.913929,10.352206],[123.913782,10.35163],[123.913713,10.351325],[123.913605,10.350884],[123.913555,10.35059],[123.913492,10.350257],[123.913429,10.349889],[123.913341,10.34944],[123.913277,10.349101],[123.913196,10.348687],[123.913108,10.348201],[123.913046,10.347885],[123.912965,10.347462],[123.912897,10.347074],[123.912836,10.346714],[123.91277,10.346267],[123.912713,10.345922],[123.912648,10.345573],[123.912563,10.345152],[123.912493,10.34479],[123.91245,10.34452],[123.912382,10.344121],[123.912329,10.343832],[123.912276,10.343521],[123.91222,10.343166],[123.912156,10.342784],[123.912107,10.342487],[123.912033,10.342047],[123.911986,10.341748],[123.911912,10.341309],[123.911858,10.341012],[123.911792,10.340634],[123.911737,10.340406],[123.911671,10.33993],[123.911593,10.339458],[123.911504,10.338932],[123.911426,10.338441],[123.911343,10.337935],[123.911277,10.337502],[123.911188,10.337022],[123.911099,10.33655],[123.911005,10.336011],[123.910919,10.335561],[123.910834,10.335046],[123.910722,10.334401],[123.910637,10.333994],[123.910544,10.333522],[123.910458,10.333095],[123.910362,10.332625],[123.910262,10.332185],[123.910086,10.331527],[123.909976,10.331186],[123.909876,10.330886],[123.909712,10.330498],[123.909528,10.330051],[123.909191,10.329255],[123.908962,10.328692],[123.908661,10.328015],[123.908452,10.327544],[123.908308,10.327249],[123.908167,10.326936],[123.908023,10.326587],[123.907827,10.326185],[123.907687,10.326008],[123.907364,10.325716],[123.907041,10.325307],[123.906803,10.32498],[123.906637,10.324743],[123.906415,10.324421],[123.906199,10.324072],[123.906001,10.323782],[123.905813,10.323491],[123.905575,10.323132],[123.905254,10.322621],[123.905005,10.322248],[123.904639,10.321703],[123.904421,10.321451],[123.90417,10.3211],[123.903977,10.320776],[123.903764,10.320389],[123.90401,10.320256],[123.904404,10.320085],[123.904827,10.32003],[123.905193,10.320087],[123.905442,10.32009],[123.905785,10.319924],[123.906153,10.319663],[123.906527,10.319387],[123.906974,10.319056],[123.907464,10.31866],[123.907732,10.318432],[123.908059,10.318172],[123.908536,10.317721],[123.90881,10.317413],[123.908951,10.317117],[123.909,10.316738],[123.908942,10.316448],[123.908773,10.316164],[123.908464,10.315843],[123.90822,10.315627],[123.907934,10.315531],[123.907668,10.315557],[123.90736,10.315677],[123.906882,10.315906],[123.906531,10.316069],[123.906146,10.316159],[123.905722,10.316258],[123.905077,10.316428],[123.904439,10.316603],[123.904198,10.316753],[123.903862,10.317116],[123.903597,10.317305],[123.903088,10.31754],[123.902616,10.317779],[123.90242,10.317367],[123.902286,10.317062],[123.902141,10.316736],[123.902027,10.316447],[123.901933,10.316172],[123.901829,10.315871],[123.901694,10.315477],[123.901644,10.315396],[123.901596,10.31536],[123.901933,10.314705],[123.902293,10.31401],[123.902636,10.313347],[123.903024,10.312605],[123.903256,10.312147],[123.903547,10.311583],[123.903864,10.310956],[123.903949,10.310782],[123.90393,10.31069],[123.903867,10.31048],[123.903768,10.310228],[123.903662,10.309905],[123.903501,10.309468],[123.903401,10.309106],[123.903234,10.30849],[123.903105,10.308054],[123.902906,10.307608],[123.902708,10.307207],[123.90249,10.306738],[123.902346,10.306515],[123.902018,10.30617],[123.901683,10.305925],[123.901373,10.305713],[123.901459,10.305568],[123.901546,10.305374],[123.901607,10.305112],[123.901646,10.30471],[123.901727,10.304181],[123.901777,10.303842],[123.901807,10.303468],[123.901878,10.302804],[123.901973,10.302421],[123.902108,10.302031],[123.902295,10.301738],[123.902458,10.301462],[123.902684,10.301104],[123.90295,10.300571],[123.90306,10.300252],[123.903148,10.299949],[123.903208,10.299762],[123.903253,10.299334],[123.90327,10.299205],[123.903378,10.299017],[123.903563,10.298657],[123.903671,10.298407],[123.903697,10.298143],[123.903693,10.298065],[123.903298,10.297939],[123.902873,10.297892],[123.902141,10.297812],[123.901449,10.29776],[123.900921,10.297679],[123.90058,10.297604],[123.900291,10.297489],[123.900014,10.297336],[123.899538,10.297039],[123.899179,10.296806],[123.899054,10.296747],[123.898989,10.296844],[123.898914,10.296972],[123.898832,10.297125],[123.898722,10.297336],[123.8986,10.297572],[123.898487,10.297809],[123.898305,10.29814],[123.898236,10.298555],[123.898156,10.299158],[123.898097,10.299671],[123.898023,10.30018],[123.898179,10.300254],[123.898522,10.300443],[123.898874,10.30063],[123.899264,10.300857],[123.899744,10.301105],[123.900243,10.301374],[123.900565,10.301495],[123.90105,10.301653],[123.901587,10.301798],[123.90208,10.301962],[123.902269,10.302161],[123.902585,10.302547],[123.902881,10.302965],[123.903357,10.303644],[123.903776,10.304214],[123.904206,10.304785],[123.904729,10.305499],[123.90512,10.306032],[123.905503,10.30655],[123.905881,10.307082],[123.906242,10.307528],[123.906627,10.307987],[123.906985,10.308386],[123.907187,10.30865],[123.907352,10.308916],[123.907606,10.30926],[123.907756,10.309467],[123.907987,10.309779],[123.908261,10.310138],[123.908551,10.310519],[123.908832,10.310854],[123.909138,10.311174],[123.909297,10.311329],[123.909581,10.311588],[123.909869,10.311853],[123.909647,10.312098],[123.909407,10.312315],[123.90932,10.312426],[123.909311,10.312563],[123.909361,10.312743],[123.909434,10.313038],[123.909492,10.313273],[123.90947,10.313393],[123.909419,10.313535],[123.909243,10.313745],[123.909084,10.313936],[123.909067,10.313962],[123.909194,10.314137],[123.909235,10.314268],[123.909218,10.314508],[123.909206,10.314997],[123.909168,10.315539],[123.909147,10.315885],[123.909032,10.316029],[123.908902,10.316126],[123.909083,10.316493],[123.909132,10.316832],[123.909056,10.317217],[123.908908,10.317484],[123.908653,10.317752],[123.908438,10.317991],[123.9082,10.318202],[123.907916,10.318432],[123.907618,10.318678],[123.907329,10.318903],[123.907022,10.319154],[123.906601,10.319477],[123.906137,10.319805],[123.905829,10.320034],[123.905536,10.32018],[123.905337,10.320213],[123.905083,10.320183],[123.90484,10.320147],[123.904554,10.320177],[123.904232,10.320306],[123.903917,10.320441],[123.904113,10.320754],[123.904272,10.320998],[123.904559,10.321441],[123.904683,10.321678],[123.904787,10.321877],[123.904976,10.32216],[123.905201,10.3225],[123.905502,10.32296],[123.905784,10.323388],[123.906031,10.323773],[123.906327,10.324211],[123.906581,10.3246],[123.906871,10.325011],[123.90705,10.325279],[123.907353,10.325664],[123.907544,10.325836],[123.907743,10.326035],[123.907855,10.326172],[123.90794,10.326352],[123.908069,10.326629],[123.908258,10.327079],[123.908459,10.327495],[123.908579,10.327756],[123.908699,10.328043],[123.90885,10.328367],[123.909022,10.328767],[123.909249,10.329317],[123.909501,10.32991],[123.909729,10.33048],[123.909902,10.330879],[123.909984,10.33113],[123.910129,10.331581],[123.910207,10.331852],[123.910295,10.332182],[123.910368,10.332511],[123.910442,10.33287],[123.910507,10.333193],[123.91057,10.333497],[123.910626,10.333821],[123.910714,10.334208],[123.910772,10.334501],[123.910819,10.334778],[123.91088,10.335107],[123.910922,10.335407],[123.910982,10.335724],[123.911045,10.336057],[123.911108,10.336449],[123.911162,10.336737],[123.911223,10.337031],[123.911289,10.337377],[123.911343,10.337714],[123.911402,10.338116],[123.911449,10.338427],[123.91152,10.338801],[123.911599,10.339255],[123.911651,10.339644],[123.911722,10.340093],[123.911784,10.340483],[123.911846,10.340753],[123.911886,10.341017],[123.911963,10.341347],[123.912,10.341661],[123.912037,10.341908],[123.912103,10.342258],[123.912172,10.342705],[123.912241,10.343079],[123.91229,10.34341],[123.912364,10.343826],[123.912438,10.344244],[123.912492,10.344576],[123.91255,10.344917],[123.912591,10.345174],[123.912648,10.345442],[123.912699,10.345703],[123.91276,10.345999],[123.912805,10.346313],[123.912852,10.346632],[123.912913,10.347023],[123.912974,10.347383],[123.91305,10.347729],[123.913119,10.348108],[123.913213,10.348606],[123.913275,10.348948],[123.913374,10.349494],[123.913465,10.349946],[123.913506,10.350165],[123.913552,10.350431],[123.913641,10.350908],[123.913723,10.351257],[123.91381,10.351642],[123.913895,10.351964],[123.91398,10.352261],[123.914089,10.352678],[123.914215,10.353172],[123.91437,10.353715],[123.914449,10.354015],[123.914561,10.354417],[123.914639,10.35471],[123.914743,10.354938],[123.914878,10.355217],[123.914985,10.355449],[123.915059,10.355679],[123.915102,10.355973],[123.915106,10.356371],[123.915109,10.356762],[123.915114,10.357374],[123.91513,10.357655],[123.915192,10.357792],[123.915348,10.358016],[123.915559,10.35831],[123.915648,10.358466],[123.915699,10.358625],[123.91572,10.358769],[123.915688,10.358991],[123.915621,10.359379],[123.915521,10.359911],[123.915447,10.360265],[123.915348,10.360732],[123.915324,10.360853],[123.915325,10.361188],[123.915359,10.361473],[123.915393,10.361817],[123.915379,10.361955],[123.91526,10.362451],[123.915119,10.363036],[123.914976,10.363551],[123.914822,10.364167],[123.914752,10.364371],[123.914628,10.364574],[123.914494,10.36472],[123.914208,10.364952],[123.914067,10.365067],[123.913957,10.365265],[123.913929,10.36551],[123.913924,10.36606],[123.913937,10.366813],[123.913903,10.367017],[123.913921,10.367269],[123.913997,10.367556],[123.9141,10.367698],[123.914279,10.367816],[123.914529,10.367969],[123.914796,10.368141],[123.915099,10.368331],[123.91544,10.368537],[123.915762,10.368737],[123.916148,10.368984],[123.916425,10.369139],[123.916689,10.369268],[123.917013,10.369347],[123.917361,10.369417],[123.917708,10.369479],[123.918063,10.369559],[123.918336,10.369639],[123.918589,10.369725],[123.918818,10.369826],[123.918951,10.369897],[123.919124,10.370021],[123.919291,10.370165],[123.919495,10.370346],[123.919761,10.370592],[123.919951,10.370766],[123.920102,10.370851],[123.920237,10.370848],[123.920465,10.370665],[123.920664,10.370504],[123.920859,10.37041],[123.921029,10.370439],[123.921136,10.370456],[123.921309,10.370601],[123.921703,10.370932],[123.921898,10.37107],[123.922081,10.371137],[123.922296,10.371142],[123.92255,10.371152],[123.922744,10.371202],[123.923015,10.371264],[123.9233,10.371349],[123.92362,10.371444],[123.923894,10.371552],[123.924049,10.371612],[123.924105,10.371609],[123.924196,10.371482],[123.92431,10.371257],[123.924389,10.371132],[123.924537,10.371218]],[[123.924537,10.371218],[123.924509,10.371271]]]}}]}