{"type":"FeatureCollection","features":[{"type":"Feature","properties":{},"geometry":{"type":"MultiLineString","coordinates":[[[123.909841,10.340342],[123.909677,10.340497],[123.909553,10.340619],[123.90942,10.340749],[123.909332,10.340828],[123.909203,10.340965],[123.909077,10.341094],[123.908996,10.341172],[123.908949,10.341207],[123.908829,10.341215],[123.908641,10.341207],[123.908433,10.3412],[123.908253,10.341199],[123.908078,10.341201],[123.907913,10.341199],[123.907861,10.341193],[123.907838,10.341168],[123.907815,10.341129],[123.907738,10.341073],[123.907651,10.341045],[123.907563,10.341033],[123.907403,10.341031],[123.90717,10.341022],[123.907023,10.341017],[123.906903,10.341016],[123.90672,10.34101],[123.906638,10.341005],[123.90658,10.340976],[123.906525,10.340945],[123.906466,10.340847],[123.906428,10.340761],[123.906387,10.34065],[123.906352,10.340569],[123.906312,10.340473],[123.906249,10.34033],[123.906207,10.340239],[123.906151,10.340119],[123.906105,10.340003],[123.906038,10.339855],[123.905936,10.339637],[123.905863,10.339471],[123.905812,10.339356],[123.905762,10.339236],[123.905676,10.339067],[123.90555,10.338897],[123.90547,10.338801],[123.905379,10.338688],[123.905279,10.338555],[123.905186,10.338441],[123.90509,10.33832],[123.90497,10.338177],[123.904887,10.338079],[123.904812,10.337991],[123.904716,10.33788],[123.904671,10.337812],[123.904773,10.337721],[123.904839,10.337676],[123.904929,10.33761],[123.905071,10.337506],[123.90519,10.337434],[123.905331,10.33733],[123.905442,10.337263],[123.90557,10.337164],[123.905642,10.3371],[123.905737,10.337037],[123.905865,10.336959],[123.90596,10.336897],[123.906019,10.336852],[123.906097,10.336791],[123.906168,10.336734],[123.906238,10.336689],[123.906353,10.336613],[123.906444,10.336544],[123.906536,10.336478],[123.906621,10.336416],[123.906707,10.336342],[123.906785,10.336275],[123.906844,10.336219],[123.906896,10.336156],[123.906967,10.336086],[123.907034,10.336014],[123.907114,10.335934],[123.907172,10.335879],[123.907254,10.335821],[123.907306,10.33581],[123.90736,10.335828],[123.907432,10.335896],[123.907555,10.336025],[123.907649,10.336122],[123.907766,10.336223],[123.90783,10.336289],[123.907854,10.336315],[123.907877,10.336329],[123.907903,10.336325],[123.907949,10.33629],[123.907996,10.336257],[123.908037,10.336228],[123.908096,10.336187],[123.90811,10.336171],[123.908113,10.336149],[123.908076,10.33609],[123.908032,10.336018],[123.907998,10.335966],[123.907935,10.335859],[123.907887,10.335771],[123.907838,10.335697],[123.907781,10.335594],[123.907723,10.335497],[123.907649,10.335375],[123.9076,10.33531],[123.907537,10.335177],[123.907502,10.335112],[123.907477,10.335038],[123.907454,10.334954],[123.907432,10.334871],[123.90739,10.334728],[123.907345,10.334573],[123.907313,10.334471],[123.907282,10.334353],[123.907243,10.334221],[123.907213,10.334106],[123.907188,10.334011],[123.907155,10.333894],[123.907114,10.333745],[123.907083,10.333634],[123.907037,10.333473],[123.907002,10.33334],[123.90694,10.333109],[123.906878,10.3329],[123.906839,10.332763],[123.906818,10.332657],[123.906763,10.332564],[123.906716,10.332483],[123.906636,10.332348],[123.906569,10.332237],[123.906517,10.332162],[123.906488,10.332098],[123.90648,10.332074],[123.906486,10.332036],[123.906528,10.33201],[123.906606,10.331971],[123.906769,10.331873],[123.906831,10.331838],[123.906856,10.331815],[123.906844,10.331766],[123.906802,10.331689],[123.906737,10.331578],[123.906638,10.331417],[123.906533,10.331246],[123.906429,10.331087],[123.906316,10.330904],[123.906193,10.330705],[123.906107,10.330547],[123.906003,10.330399],[123.905893,10.33022],[123.905818,10.330099],[123.905733,10.329964],[123.905648,10.329823],[123.905536,10.329633],[123.905414,10.329429],[123.905332,10.329301],[123.905218,10.32912],[123.905124,10.328963],[123.90502,10.328783],[123.904871,10.32853],[123.904759,10.328352],[123.904672,10.32821],[123.90461,10.328086],[123.904511,10.327929],[123.90436,10.328018],[123.904118,10.328158],[123.903852,10.328309],[123.903631,10.328436],[123.903332,10.328592],[123.903007,10.328759],[123.902774,10.328876],[123.902497,10.329011],[123.902247,10.329141],[123.902006,10.32926],[123.901742,10.329396],[123.901467,10.32953],[123.901248,10.329641],[123.901014,10.329765],[123.9008,10.329865],[123.900545,10.329996],[123.900228,10.330152],[123.900077,10.330229],[123.899853,10.330337],[123.899575,10.330472],[123.899278,10.330608],[123.89908,10.3307],[123.898778,10.330837],[123.898611,10.330903],[123.898396,10.33101],[123.898262,10.331077],[123.898138,10.331145],[123.898082,10.331162],[123.898056,10.331118],[123.898029,10.331041],[123.897967,10.330886],[123.897913,10.330726],[123.897872,10.330626],[123.897833,10.330522],[123.897804,10.3304],[123.897759,10.330262],[123.897704,10.330068],[123.897662,10.329928],[123.897617,10.329781],[123.897556,10.329561],[123.897502,10.329403],[123.897448,10.329215],[123.897417,10.329095],[123.897394,10.328988],[123.897381,10.328898],[123.897366,10.328728],[123.897364,10.328663],[123.897374,10.328549],[123.897406,10.328435],[123.897441,10.328321],[123.897485,10.328177],[123.897519,10.328073],[123.897578,10.327894],[123.897608,10.3278],[123.897657,10.32764],[123.897693,10.327545],[123.897732,10.327429],[123.897772,10.327297],[123.897818,10.327154],[123.897858,10.327032],[123.897886,10.326931],[123.897918,10.326827],[123.897925,10.32673],[123.89794,10.326613],[123.897959,10.326508],[123.89797,10.326384],[123.897994,10.326225],[123.898009,10.326093],[123.898024,10.325921],[123.898044,10.325748],[123.898067,10.325549],[123.898087,10.325378],[123.898106,10.325238],[123.89815,10.325026],[123.898186,10.324801],[123.898222,10.324619],[123.898264,10.324452],[123.898312,10.324245],[123.898354,10.324048],[123.898403,10.32384],[123.898442,10.323658],[123.898503,10.323391],[123.898559,10.323144],[123.898601,10.322953],[123.898661,10.322688],[123.898691,10.322555],[123.898726,10.322396],[123.898755,10.322267],[123.898796,10.322084],[123.898821,10.321968],[123.898868,10.321783],[123.898886,10.32169],[123.89893,10.321515],[123.898955,10.321381],[123.898997,10.321184],[123.899046,10.320964],[123.899093,10.320763],[123.899134,10.320612],[123.89915,10.320515],[123.899196,10.320334],[123.899235,10.320171],[123.899258,10.32007],[123.899277,10.319978],[123.899289,10.319929],[123.899292,10.319908],[123.899283,10.319894],[123.89925,10.319877],[123.899148,10.319828],[123.899069,10.319789],[123.898994,10.319744],[123.898934,10.319712],[123.898894,10.319687],[123.898892,10.31966],[123.898908,10.319617],[123.898955,10.319486],[123.898997,10.319353],[123.899055,10.319184],[123.89913,10.318926],[123.899208,10.318681],[123.89926,10.318506],[123.899274,10.31846],[123.899282,10.318434],[123.899268,10.318421],[123.899214,10.31841],[123.899104,10.318385],[123.899006,10.318363],[123.898908,10.31834],[123.898828,10.318321],[123.898699,10.318291],[123.898619,10.318275],[123.898513,10.318251],[123.898423,10.318232],[123.898326,10.318211],[123.898246,10.318192],[123.898126,10.318164],[123.898041,10.318143],[123.897971,10.318129],[123.897874,10.318111],[123.897795,10.318096],[123.897664,10.31807],[123.897552,10.318049],[123.897469,10.318033],[123.897376,10.318016],[123.897296,10.318],[123.897193,10.317982],[123.897068,10.317958],[123.896951,10.317936],[123.896835,10.317915],[123.896733,10.317898],[123.896602,10.317874],[123.89645,10.317847],[123.896323,10.317825],[123.896188,10.317804],[123.896087,10.317787],[123.895975,10.317764],[123.895843,10.317742],[123.895709,10.317721],[123.895586,10.317696],[123.895439,10.317673],[123.895312,10.31765],[123.895165,10.31762],[123.895067,10.317605],[123.89494,10.317583],[123.894818,10.317557],[123.894738,10.317548],[123.894647,10.317531],[123.894548,10.317529],[123.894487,10.317514],[123.89437,10.317476],[123.894238,10.317432],[123.894036,10.317369],[123.893946,10.317329],[123.893791,10.317277],[123.893675,10.317239],[123.893499,10.317177],[123.893294,10.317104],[123.893164,10.317057],[123.892963,10.316994],[123.892743,10.316922],[123.892495,10.316843],[123.892367,10.316794],[123.892092,10.316698],[123.89196,10.316653],[123.891814,10.316602],[123.891656,10.316553],[123.891544,10.316507],[123.891408,10.316461],[123.891197,10.316373],[123.891071,10.316329],[123.89089,10.316271],[123.890807,10.316247],[123.890784,10.316231],[123.890785,10.316204],[123.890798,10.316175],[123.890851,10.316028],[123.890912,10.315861],[123.890956,10.315758],[123.891002,10.315629],[123.891032,10.315515],[123.891071,10.315419],[123.891108,10.315318],[123.891144,10.315219],[123.891204,10.315059],[123.891232,10.314966],[123.891269,10.314852],[123.891303,10.314762],[123.891349,10.314644],[123.891372,10.314578],[123.891432,10.314414],[123.891459,10.314352],[123.891503,10.314208],[123.89157,10.314031],[123.891634,10.313852],[123.89168,10.313711],[123.891749,10.313526],[123.891835,10.31329],[123.891898,10.31313],[123.891936,10.313021],[123.891993,10.312865],[123.892051,10.312706],[123.892112,10.312535],[123.892172,10.312362],[123.892263,10.312109],[123.892349,10.311865],[123.892444,10.311599],[123.892528,10.311374],[123.892552,10.311311],[123.892623,10.311093],[123.892678,10.310928],[123.892727,10.310787],[123.892751,10.310702],[123.892764,10.310618],[123.892754,10.310513],[123.892728,10.310413],[123.892702,10.310351],[123.892599,10.31025],[123.892542,10.310181],[123.892492,10.310073],[123.892456,10.309973],[123.892444,10.309871],[123.89244,10.30979],[123.89245,10.309719],[123.892475,10.30964],[123.892512,10.30955],[123.892556,10.309467],[123.89261,10.309394],[123.892676,10.309332],[123.892759,10.309267],[123.89286,10.309219],[123.892997,10.309177],[123.893108,10.309155],[123.893205,10.309128],[123.893267,10.309098],[123.893305,10.309053],[123.893328,10.308996],[123.893375,10.308859],[123.893408,10.308756],[123.893454,10.308619],[123.893509,10.308468],[123.89354,10.308373],[123.893585,10.308247],[123.893649,10.308078],[123.89369,10.307969],[123.893745,10.307815],[123.893799,10.307693],[123.893858,10.30753],[123.893925,10.307362],[123.893987,10.307206],[123.89403,10.307108],[123.894057,10.307043],[123.894152,10.306791],[123.894209,10.306629],[123.894247,10.306534],[123.894305,10.306383],[123.894354,10.306249],[123.894405,10.306119],[123.894461,10.305966],[123.894535,10.305762],[123.894573,10.305645],[123.894616,10.305506],[123.894667,10.305359],[123.894706,10.30525],[123.894763,10.305106],[123.894825,10.304932],[123.894891,10.304736],[123.894958,10.304565],[123.895035,10.304324],[123.895102,10.304123],[123.89516,10.303975],[123.895238,10.303771],[123.895268,10.303683],[123.895334,10.303497],[123.895412,10.303279],[123.895464,10.303144],[123.895527,10.302984],[123.895581,10.302811],[123.89565,10.302628],[123.895707,10.302495],[123.895754,10.302358],[123.895801,10.30221],[123.895854,10.302039],[123.895891,10.30194],[123.895961,10.301731],[123.896017,10.301576],[123.896067,10.301428],[123.896139,10.301232],[123.896182,10.3011],[123.896233,10.300955],[123.89626,10.300855],[123.896326,10.300678],[123.896395,10.300494],[123.896455,10.300338],[123.896477,10.300266],[123.896516,10.300128],[123.896561,10.300017],[123.896628,10.29983],[123.896664,10.299725],[123.896721,10.299578],[123.896801,10.299351],[123.896847,10.299247],[123.896887,10.299153],[123.896918,10.299061],[123.896966,10.298926],[123.897015,10.298783],[123.897059,10.298667],[123.8971,10.298548],[123.897152,10.298389],[123.897204,10.298255],[123.897244,10.298138],[123.897316,10.297943],[123.897355,10.297845],[123.897403,10.297743],[123.897458,10.297676],[123.89751,10.297601],[123.897557,10.297528],[123.897637,10.297374],[123.897701,10.297244],[123.897773,10.297101],[123.897857,10.296934],[123.897956,10.296743],[123.898063,10.296544],[123.898126,10.296425],[123.898165,10.29634],[123.898188,10.296207],[123.898155,10.29609],[123.898119,10.295975],[123.898044,10.295772],[123.897989,10.295586],[123.897946,10.295425],[123.897859,10.295143],[123.89782,10.295004],[123.897812,10.294939],[123.897822,10.29488],[123.897848,10.294775],[123.897882,10.294636],[123.897938,10.29444],[123.897977,10.294278],[123.898024,10.294093],[123.898057,10.293972],[123.898084,10.293874],[123.8981,10.293823],[123.898116,10.293802],[123.898156,10.293813],[123.898246,10.293863],[123.898372,10.293936],[123.898541,10.294014],[123.898726,10.294111],[123.898944,10.294231],[123.898996,10.294261],[123.899022,10.29427],[123.899025,10.294249],[123.899009,10.294184],[123.89896,10.294009],[123.898916,10.293845],[123.898879,10.293701],[123.898834,10.293541],[123.898764,10.293318],[123.89868,10.293043],[123.898615,10.292822],[123.898515,10.292504],[123.898489,10.292384],[123.898492,10.292348],[123.898556,10.292331],[123.898696,10.292293],[123.898793,10.292265],[123.898889,10.29223],[123.89901,10.292197],[123.899098,10.29217],[123.899211,10.292136],[123.899366,10.292079],[123.899482,10.292037],[123.899571,10.291998],[123.899669,10.292011],[123.899767,10.292032],[123.899875,10.292061],[123.900069,10.292106],[123.900413,10.292191],[123.900658,10.292249],[123.900891,10.292307],[123.901088,10.292364],[123.901306,10.292418],[123.901554,10.292479],[123.901789,10.292542],[123.90206,10.292603],[123.90218,10.292632],[123.902261,10.292652],[123.902356,10.292607],[123.902527,10.29254],[123.902646,10.292485],[123.902794,10.292427],[123.902879,10.292393],[123.903036,10.292322],[123.903073,10.29244],[123.903175,10.292666],[123.903307,10.292954],[123.903364,10.29307],[123.903584,10.293497],[123.903719,10.2938],[123.903852,10.294056],[123.90396,10.294285],[123.904072,10.294494],[123.904085,10.294526],[123.904078,10.294545],[123.90405,10.294562],[123.903962,10.2946],[123.903729,10.294715],[123.903534,10.294805],[123.90339,10.294867],[123.903228,10.29495],[123.90304,10.295032],[123.902798,10.295138],[123.902653,10.295198],[123.902411,10.295288],[123.902276,10.295349],[123.902072,10.295421],[123.901839,10.295509],[123.901673,10.295571],[123.901502,10.295629],[123.901268,10.29572],[123.900994,10.295829],[123.900624,10.295984],[123.900424,10.296083],[123.900222,10.296171],[123.900063,10.296234],[123.899881,10.296321],[123.899636,10.296437],[123.899384,10.296552],[123.899217,10.296639],[123.899076,10.296713],[123.899041,10.296736],[123.899021,10.296765],[123.898983,10.296838],[123.898876,10.297053],[123.898739,10.297301],[123.89862,10.29753],[123.898534,10.29772],[123.898429,10.29792],[123.898342,10.298089],[123.898282,10.298206],[123.89826,10.298454],[123.898213,10.29874],[123.898166,10.299118],[123.898132,10.299429],[123.89809,10.299692],[123.898074,10.299904],[123.898052,10.30005],[123.898034,10.300169],[123.898018,10.300194],[123.897982,10.300188],[123.897903,10.300141],[123.897799,10.300083],[123.897703,10.30011],[123.897585,10.300102],[123.897472,10.300048],[123.897351,10.299983],[123.897218,10.299914],[123.897076,10.29984],[123.896988,10.299808],[123.896911,10.299809],[123.896844,10.299818],[123.896791,10.299845],[123.896742,10.299974],[123.896659,10.300234],[123.896561,10.300506],[123.896465,10.300784],[123.896363,10.301074],[123.896272,10.30132],[123.896184,10.301566],[123.896105,10.301784],[123.896039,10.301955],[123.895988,10.302095],[123.895946,10.302226],[123.895884,10.302375],[123.89581,10.30257],[123.895734,10.302776],[123.895674,10.302956],[123.895617,10.303123],[123.895538,10.303324],[123.89545,10.303567],[123.895392,10.303725],[123.89533,10.303912],[123.895283,10.304044],[123.895198,10.304255],[123.895138,10.304425],[123.895056,10.304675],[123.894974,10.304891],[123.894906,10.305085],[123.894839,10.305265],[123.894762,10.305459],[123.894687,10.305684],[123.894621,10.305876],[123.894525,10.306138],[123.894438,10.306374],[123.894349,10.306612],[123.894283,10.306798],[123.894231,10.306951],[123.894177,10.307099],[123.89415,10.307197],[123.894114,10.307341],[123.894066,10.307495],[123.89401,10.307672],[123.893953,10.307862],[123.893901,10.308],[123.893843,10.308154],[123.893763,10.308365],[123.893704,10.308541],[123.893642,10.308727],[123.893566,10.308959],[123.893534,10.309063],[123.893512,10.309151],[123.893515,10.309222],[123.893543,10.309305],[123.893597,10.309366],[123.893673,10.30946],[123.893738,10.309559],[123.893784,10.309653],[123.893792,10.309756],[123.893791,10.309865],[123.893788,10.309959],[123.893741,10.310092],[123.893692,10.310187],[123.893636,10.310269],[123.893555,10.310357],[123.893416,10.31043],[123.893314,10.310464],[123.893137,10.310497],[123.893028,10.310558],[123.892945,10.310642],[123.892893,10.310711],[123.892842,10.310879],[123.892754,10.311092],[123.892678,10.311292],[123.892598,10.311522],[123.892528,10.311737],[123.892441,10.311988],[123.892321,10.312314],[123.892229,10.312586],[123.892137,10.312852],[123.892033,10.313107],[123.891928,10.313432],[123.891849,10.313681],[123.891776,10.313922],[123.891703,10.314134],[123.891618,10.314357],[123.891561,10.314499],[123.89149,10.314694],[123.891418,10.314919],[123.891339,10.315138],[123.891253,10.315396],[123.891194,10.315574],[123.891081,10.315899],[123.891046,10.315996],[123.890997,10.316144],[123.890981,10.316182],[123.890976,10.316201],[123.890986,10.316213],[123.891012,10.316222],[123.891056,10.316234],[123.891263,10.316304],[123.891437,10.316367],[123.891618,10.316432],[123.891796,10.316498],[123.891978,10.31656],[123.892127,10.316613],[123.892387,10.316711],[123.892488,10.316742],[123.892675,10.316803],[123.892872,10.316873],[123.893115,10.316956],[123.893296,10.317021],[123.893568,10.317118],[123.893776,10.317181],[123.894028,10.317277],[123.894327,10.317377],[123.894466,10.317425],[123.894596,10.317473],[123.894732,10.317514],[123.894849,10.317535],[123.895046,10.317571],[123.895305,10.317619],[123.895527,10.317653],[123.895715,10.317685],[123.89589,10.31772],[123.896092,10.317752],[123.896291,10.317792],[123.896466,10.31782],[123.896693,10.317866],[123.896856,10.317892],[123.897017,10.31792],[123.897272,10.317967],[123.897486,10.318005],[123.897735,10.318047],[123.897969,10.318091],[123.898213,10.318151],[123.898453,10.318204],[123.898701,10.31826],[123.899018,10.31833],[123.899424,10.31843],[123.899589,10.318472],[123.899781,10.318526],[123.899862,10.318545],[123.899897,10.318553],[123.899924,10.318569],[123.899946,10.3186],[123.899904,10.318677],[123.899847,10.318788],[123.899794,10.318899],[123.899717,10.319052],[123.899621,10.319244],[123.899524,10.319449],[123.899426,10.319657],[123.899356,10.319817],[123.89933,10.319879],[123.89929,10.320011],[123.899258,10.320167],[123.899226,10.320307],[123.899192,10.320441],[123.899164,10.320568],[123.899143,10.32067],[123.899106,10.320802],[123.899078,10.320943],[123.899034,10.321125],[123.898999,10.321294],[123.898955,10.321503],[123.898911,10.321674],[123.898882,10.321815],[123.898843,10.321978],[123.898813,10.322141],[123.898777,10.322288],[123.898737,10.322456],[123.898698,10.322644],[123.89867,10.322767],[123.898643,10.322881],[123.898605,10.323059],[123.898571,10.323211],[123.898538,10.323351],[123.898513,10.32348],[123.898482,10.323617],[123.898454,10.323736],[123.898425,10.323878],[123.89839,10.324034],[123.898355,10.324179],[123.898315,10.32436],[123.898275,10.324517],[123.898249,10.324642],[123.898221,10.324787],[123.898198,10.324927],[123.898176,10.32505],[123.898151,10.325172],[123.898124,10.32531],[123.898118,10.325363],[123.898105,10.325503],[123.898083,10.325679],[123.898063,10.325839],[123.898048,10.326016],[123.898024,10.326234],[123.898,10.32646],[123.897963,10.326691],[123.897935,10.326876],[123.897891,10.327027],[123.897832,10.327201],[123.897771,10.327397],[123.897716,10.327575],[123.897655,10.32776],[123.897572,10.328009],[123.897501,10.328215],[123.897432,10.328458],[123.897397,10.328573],[123.897396,10.328708],[123.897419,10.328931],[123.897456,10.329104],[123.897499,10.329272],[123.897547,10.329427],[123.897614,10.329627],[123.897657,10.329796],[123.897713,10.329989],[123.897762,10.330152],[123.897825,10.330364],[123.897889,10.330572],[123.897918,10.330609],[123.897987,10.330669],[123.898105,10.330762],[123.898207,10.330824],[123.89836,10.330888],[123.898487,10.330927],[123.898531,10.330914],[123.898619,10.330879],[123.898742,10.33082],[123.898916,10.330745],[123.899114,10.330654],[123.899336,10.33056],[123.899509,10.33048],[123.899688,10.330395],[123.899853,10.330311],[123.90014,10.330163],[123.900464,10.330011],[123.900698,10.329888],[123.900903,10.329783],[123.901273,10.329592],[123.901524,10.329468],[123.901741,10.329358],[123.901983,10.329233],[123.902232,10.32911],[123.902488,10.328985],[123.902764,10.328842],[123.902997,10.328725],[123.903315,10.32856],[123.903618,10.328401],[123.903977,10.328197],[123.904228,10.328054],[123.904535,10.327877],[123.90456,10.327867],[123.904585,10.327869],[123.904604,10.327888],[123.904623,10.327915],[123.904708,10.328059],[123.904831,10.32827],[123.905056,10.328644],[123.905217,10.328915],[123.905344,10.329112],[123.905353,10.329126],[123.905366,10.329134],[123.905379,10.329132],[123.9054,10.32912],[123.905534,10.329037],[123.905776,10.328893],[123.905969,10.328775],[123.906269,10.328583],[123.906428,10.328496],[123.906588,10.328399],[123.906795,10.328281],[123.906814,10.328269],[123.906829,10.328265],[123.90684,10.328271],[123.906854,10.328294],[123.906915,10.328393],[123.906982,10.328497],[123.907118,10.328735],[123.907235,10.328922],[123.907418,10.329227],[123.907563,10.329451],[123.907637,10.329571],[123.90774,10.329747],[123.907914,10.330029],[123.908049,10.330252],[123.908177,10.330477],[123.908271,10.330619],[123.908365,10.330771],[123.908407,10.330846],[123.908463,10.330936],[123.908472,10.330983],[123.908461,10.330998],[123.90844,10.331013],[123.908374,10.331044],[123.908234,10.331121],[123.908086,10.33122],[123.907842,10.331374],[123.907695,10.331447],[123.907467,10.331585],[123.907348,10.331666],[123.90714,10.331786],[123.907015,10.331869],[123.906857,10.331966],[123.90676,10.332025],[123.906604,10.332103],[123.906554,10.332136],[123.906549,10.332159],[123.906566,10.332188],[123.906648,10.33231],[123.90673,10.332439],[123.906812,10.332584],[123.906846,10.332641],[123.906867,10.332741],[123.906908,10.332891],[123.906941,10.333017],[123.907001,10.333222],[123.907033,10.333343]],[[123.907033,10.333343],[123.907121,10.333667],[123.907195,10.333918],[123.90725,10.334118],[123.907312,10.334344],[123.907361,10.33452],[123.907428,10.334761],[123.907463,10.334895],[123.907527,10.335099],[123.907569,10.335198],[123.907639,10.335324],[123.907732,10.33547],[123.907876,10.335715],[123.90801,10.335936],[123.90815,10.336155],[123.908132,10.336199],[123.908086,10.336233],[123.908,10.33629],[123.907836,10.336414],[123.90774,10.336475],[123.907686,10.336507],[123.907664,10.336518],[123.907644,10.336513],[123.907617,10.336494],[123.907569,10.33645],[123.907436,10.336318],[123.907351,10.336228],[123.907261,10.336137],[123.907179,10.336052],[123.907157,10.336027],[123.907136,10.336007],[123.907112,10.335996],[123.907089,10.335997],[123.907015,10.336078],[123.906887,10.336215],[123.906756,10.336335],[123.906624,10.336448],[123.906526,10.33652],[123.906325,10.336668],[123.906188,10.336758],[123.905995,10.336902],[123.905851,10.336988],[123.905686,10.337101],[123.905542,10.337215],[123.905399,10.337314],[123.905274,10.337405],[123.905078,10.337528],[123.904991,10.3376],[123.904868,10.337689],[123.904766,10.33776],[123.904714,10.337796],[123.904704,10.337805],[123.904701,10.337812],[123.904704,10.337823],[123.904717,10.337836],[123.904781,10.337912],[123.904897,10.338049],[123.905033,10.338215],[123.905154,10.338362],[123.905325,10.338575],[123.905424,10.338694],[123.905512,10.33881],[123.905657,10.339001],[123.905707,10.339067],[123.905796,10.339252],[123.905903,10.339478],[123.905978,10.339658],[123.906066,10.339852],[123.906155,10.340051],[123.906245,10.340255],[123.906314,10.34041],[123.906382,10.340565],[123.90644,10.34071],[123.906493,10.34083],[123.906549,10.340929],[123.906574,10.34095],[123.906621,10.340972],[123.906645,10.34098],[123.906774,10.340985],[123.907063,10.340991],[123.907401,10.341],[123.907554,10.341001],[123.907635,10.341006],[123.907688,10.341021],[123.907749,10.341043],[123.907812,10.341086],[123.907847,10.341132],[123.907871,10.341171],[123.907884,10.341175],[123.907905,10.341177],[123.907997,10.341179],[123.908233,10.341173],[123.908439,10.341176],[123.908681,10.341179],[123.908894,10.341189],[123.908935,10.341187],[123.908968,10.341159],[123.909073,10.341058],[123.909227,10.340899],[123.909459,10.340672],[123.909576,10.340559],[123.909757,10.340387],[123.909827,10.340317],[123.909864,10.340288],[123.909883,10.340286],[123.909897,10.340295],[123.909911,10.340322],[123.909936,10.340403],[123.909965,10.340484],[123.910019,10.34065],[123.91004,10.340709],[123.910043,10.340733],[123.910041,10.340748],[123.910036,10.340753],[123.910027,10.340752],[123.91002,10.340749],[123.910009,10.340729],[123.909999,10.340694],[123.909979,10.340628],[123.90996,10.340556],[123.90994,10.340492],[123.909925,10.340446],[123.909909,10.3404],[123.909898,10.340356],[123.909896,10.340339],[123.90989,10.340324],[123.909881,10.340317],[123.909871,10.340316],[123.909857,10.340328],[123.909841,10.340342]]]}}]}